{"crs":{"properties":{"name":"urn:ogc:def:crs:EPSG::7791"},"type":"name"},"features":[{"bbox":[518221.154651,5036045.701419,518263.595977,5036074.675192],"geometry":{"coordinates":[[[518236.290204,5036074.072859,0.0],[518256.537867,5036074.675192,0.0],[518263.595977,5036062.072527,0.0],[518252.475979,5036045.701419,0.0],[518230.421316,5036046.195641,0.0],[518221.154651,5036064.667194,0.0],[518236.290204,5036074.072859,0.0]],[[518248.089757,5036063.802305,0.0],[518248.398646,5036053.794307,0.0],[518255.132423,5036053.238307,0.0],[518255.379534,5036062.875638,0.0],[518248.089757,5036063.802305,0.0]]],"type":"Polygon"},"id":1,"properties":{"Description":"Outer","Name":"East Goal","pk":1},"type":"Feature"}],"type":"FeatureCollection"}