{
"type": "FeatureCollection",
"name": "domenica",
"crs": { "type": "name", "properties": { "name": "urn:ogc:def:crs:EPSG::3857" } },
"features": [
{ "type": "Feature", "properties": { "Name": "East Field", "Description": "Concave" }, "geometry": { "type": "Polygon", "coordinates": [ [ [ 1027873.39674922847189, 5696989.360107813030481, 0.0 ], [ 1027874.728696002392098, 5696982.108397599309683, 0.0 ], [ 1027899.295714276144281, 5696982.996362115256488, 0.0 ], [ 1027910.839252983103506, 5697000.163676090538502, 0.0 ], [ 1027916.167040078551508, 5697001.791611036285758, 0.0 ], [ 1027920.606862658169121, 5696996.31582985445857, 0.0 ], [ 1027947.245798135758378, 5696996.167835768312216, 0.0 ], [ 1027946.579824748681858, 5697137.132202669046819, 0.0 ], [ 1027930.596463462105021, 5697138.168161271139979, 0.0 ], [ 1027926.896611312404275, 5697121.592823640443385, 0.0 ], [ 1027918.016966153285466, 5697115.673060201108456, 0.0 ], [ 1027899.517705404898152, 5697117.15300106164068, 0.0 ], [ 1027923.788735506706871, 5697085.038284402340651, 0.0 ], [ 1027926.452629054430872, 5697068.018964514136314, 0.0 ], [ 1027924.972688194713555, 5697040.048082261346281, 0.0 ], [ 1027910.321273682056926, 5697011.633217751979828, 0.0 ], [ 1027894.18991830945015, 5696998.75773227121681, 0.0 ], [ 1027873.39674922847189, 5696989.360107813030481, 0.0 ] ] ] } },
{ "type": "Feature", "properties": { "Name": "Field", "Description": "Centro" }, "geometry": { "type": "Polygon", "coordinates": [ [ [ 1027718.52093824360054, 5697103.611542194150388, 0.0 ], [ 1027724.292707597021945, 5697107.903370687738061, 0.0 ], [ 1027881.980406215763651, 5697109.605302677489817, 0.0 ], [ 1027893.671939008752815, 5697101.317633861675858, 0.0 ], [ 1027902.995566425845027, 5697090.736056714318693, 0.0 ], [ 1027903.587542769731954, 5697030.724454848095775, 0.0 ], [ 1027889.121120864525437, 5697013.853129043243825, 0.0 ], [ 1027870.029883772251196, 5697004.233513454906642, 0.0 ], [ 1027855.674457431538031, 5697003.049560766667128, 0.0 ], [ 1027821.191835396690294, 5697002.013602164573967, 0.0 ], [ 1027820.451864966773428, 5697007.193395174108446, 0.0 ], [ 1027788.041160135762766, 5697006.749412916600704, 0.0 ], [ 1027788.485142393736169, 5697001.717613993212581, 0.0 ], [ 1027744.974881113623269, 5697000.97764356341213, 0.0 ], [ 1027728.991519827162847, 5697006.157436572946608, 0.0 ], [ 1027719.815886495984159, 5697011.189235496334732, 0.0 ], [ 1027718.52093824360054, 5697103.611542194150388, 0.0 ] ], [ [ 1027726.919602623442188, 5697063.172158200293779, 0.0 ], [ 1027727.400583402835764, 5697052.627579574473202, 0.0 ], [ 1027733.764329100260511, 5697052.516584009863436, 0.0 ], [ 1027733.690332057303749, 5697063.246155243366957, 0.0 ], [ 1027726.919602623442188, 5697063.172158200293779, 0.0 ] ], [ [ 1027867.994965090532787, 5697065.429068014957011, 0.0 ], [ 1027868.549942912999541, 5697055.069481995888054, 0.0 ], [ 1027877.429588072234765, 5697055.328471646644175, 0.0 ], [ 1027877.170598421711475, 5697065.503065058030188, 0.0 ], [ 1027867.994965090532787, 5697065.429068014957011, 0.0 ] ], [ [ 1027887.93716817710083, 5697090.773055240511894, 0.0 ], [ 1027888.122160784550942, 5697082.670379032380879, 0.0 ], [ 1027896.742816293262877, 5697082.448387903161347, 0.0 ], [ 1027896.853811857756227, 5697090.514065589755774, 0.0 ], [ 1027887.93716817710083, 5697090.773055240511894, 0.0 ] ], [ [ 1027885.495265758130699, 5697048.335751083679497, 0.0 ], [ 1027884.903289414127357, 5697037.828170978464186, 0.0 ], [ 1027886.531224359991029, 5697029.76249329186976, 0.0 ], [ 1027890.897049896651879, 5697028.948525818996131, 0.0 ], [ 1027901.848612259607762, 5697033.314351355656981, 0.0 ], [ 1027901.922609302564524, 5697040.56606156937778, 0.0 ], [ 1027896.446828121086583, 5697048.483745168894529, 0.0 ], [ 1027885.495265758130699, 5697048.335751083679497, 0.0 ] ] ] } }
]
}
