{
"type": "FeatureCollection",
"name": "giurati_poles",
"crs": { "type": "name", "properties": { "name": "urn:ogc:def:crs:EPSG::7791" } },
"features": [
{ "type": "Feature", "properties": { "pk": 1, "Name": "Fake" }, "geometry": { "type": "Polygon", "coordinates": [ [ [ 518175.705137305543758, 5036061.984975847415626, 0.0 ], [ 518173.21258851501625, 5036049.678016194142401, 0.0 ], [ 518179.288176191970706, 5036042.200369821861386, 0.0 ], [ 518190.50464574934449, 5036039.084683833643794, 0.0 ], [ 518208.176427214115392, 5036037.668020364828408, 0.0 ], [ 518225.71189741557464, 5036040.64252682775259, 0.0 ], [ 518235.682092577684671, 5036042.979291318915784, 0.0 ], [ 518241.913464554061648, 5036045.783408708870411, 0.0 ], [ 518245.496503440430388, 5036049.210663295350969, 0.0 ], [ 518248.057207862613723, 5036054.648509000428021, 0.0 ], [ 518249.459266557299998, 5036063.216645467095077, 0.0 ], [ 518241.290327356429771, 5036067.43742632586509, 0.0 ], [ 518233.25769941881299, 5036074.744683623313904, 0.0 ], [ 518215.741702253464609, 5036077.874974387697875, 0.0 ], [ 518201.039558997028507, 5036079.627547756768763, 0.0 ], [ 518178.733194625936449, 5036071.9405662342906, 0.0 ], [ 518175.705137305543758, 5036061.984975847415626, 0.0 ] ], [ [ 518239.680033544020262, 5036051.179507844150066, 0.0 ], [ 518239.688618148036767, 5036051.17958986852318, 0.0 ], [ 518239.714454030327033, 5036051.171397159807384, 0.0 ], [ 518239.731805030081887, 5036051.154666625894606, 0.0 ], [ 518239.740480626875069, 5036051.146292765624821, 0.0 ], [ 518239.749251386791002, 5036051.129480248317122, 0.0 ], [ 518239.74944190698443, 5036051.112585747614503, 0.0 ], [ 518239.749537070107181, 5036051.104147090576589, 0.0 ], [ 518239.726749510678928, 5036050.842027796432376, 0.0 ], [ 518239.726740782090928, 5036050.842027712613344, 0.0 ], [ 518239.649514260177966, 5036050.841289824806154, 0.0 ], [ 518239.629495977947954, 5036051.09454336296767, 0.0 ], [ 518239.629400620877277, 5036051.102999205701053, 0.0 ], [ 518239.629019580490422, 5036051.13678820617497, 0.0 ], [ 518239.628924417367671, 5036051.145226863212883, 0.0 ], [ 518239.637409300019499, 5036051.153764689341187, 0.0 ], [ 518239.645894376619253, 5036051.162285327911377, 0.0 ], [ 518239.662959498993587, 5036051.170905137434602, 0.0 ], [ 518239.680024815315846, 5036051.179507760331035, 0.0 ], [ 518239.680033544020262, 5036051.179507844150066, 0.0 ] ], [ [ 518230.541689799225423, 5036051.092192378826439, 0.0 ], [ 518230.541698527929839, 5036051.092192462645471, 0.0 ], [ 518230.550283131946344, 5036051.092274487018585, 0.0 ], [ 518230.57611901423661, 5036051.084081778302789, 0.0 ], [ 518230.593470013991464, 5036051.067351244390011, 0.0 ], [ 518230.602145610784646, 5036051.058977384120226, 0.0 ], [ 518230.610916370700579, 5036051.042164866812527, 0.0 ], [ 518230.611106890894007, 5036051.025270366109908, 0.0 ], [ 518230.611202054016758, 5036051.016831709071994, 0.0 ], [ 518230.588414494588505, 5036050.754712414927781, 0.0 ], [ 518230.588405766000506, 5036050.754712331108749, 0.0 ], [ 518230.511179244087543, 5036050.753974443301558, 0.0 ], [ 518230.491160961857531, 5036051.007227981463075, 0.0 ], [ 518230.491065604786854, 5036051.015683824196458, 0.0 ], [ 518230.490684564399999, 5036051.049472824670374, 0.0 ], [ 518230.490589401277248, 5036051.057911481708288, 0.0 ], [ 518230.499074283929076, 5036051.066449307836592, 0.0 ], [ 518230.50755936052883, 5036051.074969946406782, 0.0 ], [ 518230.524624482903164, 5036051.083589755930007, 0.0 ], [ 518230.541689799225423, 5036051.092192378826439, 0.0 ] ], [ [ 518233.587814564292785, 5036051.121297631412745, 0.0 ], [ 518233.59639916830929, 5036051.121379655785859, 0.0 ], [ 518233.622235050599556, 5036051.113186947070062, 0.0 ], [ 518233.63958605035441, 5036051.096456413157284, 0.0 ], [ 518233.648261647147592, 5036051.088082552887499, 0.0 ], [ 518233.657032407063525, 5036051.071270035579801, 0.0 ], [ 518233.657222927256953, 5036051.054375534877181, 0.0 ], [ 518233.657318090379704, 5036051.045936877839267, 0.0 ], [ 518233.634530530951452, 5036050.783817583695054, 0.0 ], [ 518233.634521802363452, 5036050.783817499876022, 0.0 ], [ 518233.557295280450489, 5036050.783079612068832, 0.0 ], [ 518233.537276998220477, 5036051.036333150230348, 0.0 ], [ 518233.5371816411498, 5036051.044788992963731, 0.0 ], [ 518233.536800600762945, 5036051.078577993437648, 0.0 ], [ 518233.536705437640194, 5036051.087016650475562, 0.0 ], [ 518233.545190320292022, 5036051.095554476603866, 0.0 ], [ 518233.553675396891776, 5036051.104075115174055, 0.0 ], [ 518233.57074051926611, 5036051.11269492469728, 0.0 ], [ 518233.58780583558837, 5036051.121297547593713, 0.0 ], [ 518233.587814564292785, 5036051.121297631412745, 0.0 ] ], [ [ 518236.633917507657316, 5036051.150402675382793, 0.0 ], [ 518236.642502111673821, 5036051.150484699755907, 0.0 ], [ 518236.668337993964087, 5036051.142291991040111, 0.0 ], [ 518236.685688993718941, 5036051.125561457127333, 0.0 ], [ 518236.694364590512123, 5036051.117187596857548, 0.0 ], [ 518236.703135350428056, 5036051.100375079549849, 0.0 ], [ 518236.703325870621484, 5036051.083480578847229, 0.0 ], [ 518236.703421033744235, 5036051.075041921809316, 0.0 ], [ 518236.680633474315982, 5036050.812922627665102, 0.0 ], [ 518236.680624745727982, 5036050.812922543846071, 0.0 ], [ 518236.60339822381502, 5036050.81218465603888, 0.0 ], [ 518236.583379941585008, 5036051.065438194200397, 0.0 ], [ 518236.583284584514331, 5036051.07389403693378, 0.0 ], [ 518236.582903544127475, 5036051.107683037407696, 0.0 ], [ 518236.582808381004725, 5036051.11612169444561, 0.0 ], [ 518236.591293263656553, 5036051.124659520573914, 0.0 ], [ 518236.599778340256307, 5036051.133180159144104, 0.0 ], [ 518236.616843462630641, 5036051.141799968667328, 0.0 ], [ 518236.6339087789529, 5036051.150402591563761, 0.0 ], [ 518236.633917507657316, 5036051.150402675382793, 0.0 ] ], [ [ 518179.581581481790636, 5036050.605293598026037, 0.0 ], [ 518179.590166085807141, 5036050.605375622399151, 0.0 ], [ 518179.616001968097407, 5036050.597182913683355, 0.0 ], [ 518179.633352967852261, 5036050.580452379770577, 0.0 ], [ 518179.642028564645443, 5036050.572078519500792, 0.0 ], [ 518179.650799324561376, 5036050.555266002193093, 0.0 ], [ 518179.650989844754804, 5036050.538371501490474, 0.0 ], [ 518179.651085007877555, 5036050.52993284445256, 0.0 ], [ 518179.628297448449302, 5036050.267813550308347, 0.0 ], [ 518179.628288719861303, 5036050.267813466489315, 0.0 ], [ 518179.55106219794834, 5036050.267075578682125, 0.0 ], [ 518179.531043915718328, 5036050.520329116843641, 0.0 ], [ 518179.530948558647651, 5036050.528784959577024, 0.0 ], [ 518179.530567518260796, 5036050.562573960050941, 0.0 ], [ 518179.530472355138045, 5036050.571012617088854, 0.0 ], [ 518179.538957237789873, 5036050.579550443217158, 0.0 ], [ 518179.547442314389627, 5036050.588071081787348, 0.0 ], [ 518179.564507436763961, 5036050.596690891310573, 0.0 ], [ 518179.58157275308622, 5036050.605293514207006, 0.0 ], [ 518179.581581481790636, 5036050.605293598026037, 0.0 ] ], [ [ 518182.627697518153582, 5036050.634398766793311, 0.0 ], [ 518182.636282122170087, 5036050.634480791166425, 0.0 ], [ 518182.662118004460353, 5036050.626288082450628, 0.0 ], [ 518182.679469004215207, 5036050.60955754853785, 0.0 ], [ 518182.688144601008389, 5036050.601183688268065, 0.0 ], [ 518182.696915360924322, 5036050.584371170960367, 0.0 ], [ 518182.69710588111775, 5036050.567476670257747, 0.0 ], [ 518182.697201044240501, 5036050.559038013219833, 0.0 ], [ 518182.674413484812248, 5036050.29691871907562, 0.0 ], [ 518182.674404756224249, 5036050.296918635256588, 0.0 ], [ 518182.597178234311286, 5036050.296180747449398, 0.0 ], [ 518182.577159952081274, 5036050.549434285610914, 0.0 ], [ 518182.577064595010597, 5036050.557890128344297, 0.0 ], [ 518182.576683554623742, 5036050.591679128818214, 0.0 ], [ 518182.576588391500991, 5036050.600117785856128, 0.0 ], [ 518182.585073274152819, 5036050.608655611984432, 0.0 ], [ 518182.593558350752573, 5036050.617176250554621, 0.0 ], [ 518182.610623473126907, 5036050.625796060077846, 0.0 ], [ 518182.627688789449167, 5036050.634398682974279, 0.0 ], [ 518182.627697518153582, 5036050.634398766793311, 0.0 ] ], [ [ 518185.673791732813697, 5036050.663503726944327, 0.0 ], [ 518185.673800461518113, 5036050.663503810763359, 0.0 ], [ 518185.682385065534618, 5036050.663585835136473, 0.0 ], [ 518185.708220947824884, 5036050.655393126420677, 0.0 ], [ 518185.725571947579738, 5036050.638662592507899, 0.0 ], [ 518185.73424754437292, 5036050.630288732238114, 0.0 ], [ 518185.743018304288853, 5036050.613476214930415, 0.0 ], [ 518185.743208824482281, 5036050.596581714227796, 0.0 ], [ 518185.743303987605032, 5036050.588143057189882, 0.0 ], [ 518185.720516428176779, 5036050.326023763045669, 0.0 ], [ 518185.720507699588779, 5036050.326023679226637, 0.0 ], [ 518185.643281177675817, 5036050.325285791419446, 0.0 ], [ 518185.623262895445805, 5036050.578539329580963, 0.0 ], [ 518185.623167538375128, 5036050.586995172314346, 0.0 ], [ 518185.622786497988272, 5036050.620784172788262, 0.0 ], [ 518185.622691334865522, 5036050.629222829826176, 0.0 ], [ 518185.63117621751735, 5036050.63776065595448, 0.0 ], [ 518185.639661294117104, 5036050.64628129452467, 0.0 ], [ 518185.656726416491438, 5036050.654901104047894, 0.0 ], [ 518185.673791732813697, 5036050.663503726944327, 0.0 ] ], [ [ 518188.719907769176643, 5036050.692608895711601, 0.0 ], [ 518188.719916497881059, 5036050.692608979530632, 0.0 ], [ 518188.728501101897564, 5036050.692691003903747, 0.0 ], [ 518188.75433698418783, 5036050.68449829518795, 0.0 ], [ 518188.771687983942684, 5036050.667767761275172, 0.0 ], [ 518188.780363580735866, 5036050.659393901005387, 0.0 ], [ 518188.789134340651799, 5036050.642581383697689, 0.0 ], [ 518188.789324860845227, 5036050.625686882995069, 0.0 ], [ 518188.789420023967978, 5036050.617248225957155, 0.0 ], [ 518188.766632464539725, 5036050.355128931812942, 0.0 ], [ 518188.766623735951725, 5036050.35512884799391, 0.0 ], [ 518188.689397214038763, 5036050.35439096018672, 0.0 ], [ 518188.669378931808751, 5036050.607644498348236, 0.0 ], [ 518188.669283574738074, 5036050.616100341081619, 0.0 ], [ 518188.668902534351218, 5036050.649889341555536, 0.0 ], [ 518188.668807371228468, 5036050.65832799859345, 0.0 ], [ 518188.677292253880296, 5036050.666865824721754, 0.0 ], [ 518188.68577733048005, 5036050.675386463291943, 0.0 ], [ 518188.702842452854384, 5036050.684006272815168, 0.0 ], [ 518188.719907769176643, 5036050.692608895711601, 0.0 ] ], [ [ 518189.77530780719826, 5036050.702693079598248, 0.0 ], [ 518189.775316535902675, 5036050.70269316341728, 0.0 ], [ 518189.78390113991918, 5036050.702775187790394, 0.0 ], [ 518189.809737022209447, 5036050.694582479074597, 0.0 ], [ 518189.8270880219643, 5036050.677851945161819, 0.0 ], [ 518189.835763618757483, 5036050.669478084892035, 0.0 ], [ 518189.844534378673416, 5036050.652665567584336, 0.0 ], [ 518189.844724898866843, 5036050.635771066881716, 0.0 ], [ 518189.844820061989594, 5036050.627332409843802, 0.0 ], [ 518189.822032502561342, 5036050.365213115699589, 0.0 ], [ 518189.822023773973342, 5036050.365213031880558, 0.0 ], [ 518189.74479725206038, 5036050.364475144073367, 0.0 ], [ 518189.724778969830368, 5036050.617728682234883, 0.0 ], [ 518189.724683612759691, 5036050.626184524968266, 0.0 ], [ 518189.724302572372835, 5036050.659973525442183, 0.0 ], [ 518189.724207409250084, 5036050.668412182480097, 0.0 ], [ 518189.732692291901913, 5036050.676950008608401, 0.0 ], [ 518189.741177368501667, 5036050.68547064717859, 0.0 ], [ 518189.758242490876, 5036050.694090456701815, 0.0 ], [ 518189.77530780719826, 5036050.702693079598248, 0.0 ] ], [ [ 518192.821432572265621, 5036050.731798332184553, 0.0 ], [ 518192.830017176282126, 5036050.731880356557667, 0.0 ], [ 518192.855853058572393, 5036050.723687647841871, 0.0 ], [ 518192.873204058327246, 5036050.706957113929093, 0.0 ], [ 518192.881879655120429, 5036050.698583253659308, 0.0 ], [ 518192.890650415036362, 5036050.681770736351609, 0.0 ], [ 518192.890840935229789, 5036050.66487623564899, 0.0 ], [ 518192.89093609835254, 5036050.656437578611076, 0.0 ], [ 518192.868148538924288, 5036050.394318284466863, 0.0 ], [ 518192.868139810336288, 5036050.394318200647831, 0.0 ], [ 518192.790913288423326, 5036050.393580312840641, 0.0 ], [ 518192.770895006193314, 5036050.646833851002157, 0.0 ], [ 518192.770799649122637, 5036050.65528969373554, 0.0 ], [ 518192.770418608735781, 5036050.689078694209456, 0.0 ], [ 518192.77032344561303, 5036050.69751735124737, 0.0 ], [ 518192.778808328264859, 5036050.706055177375674, 0.0 ], [ 518192.787293404864613, 5036050.714575815945864, 0.0 ], [ 518192.804358527238946, 5036050.723195625469089, 0.0 ], [ 518192.821423843561206, 5036050.731798248365521, 0.0 ], [ 518192.821432572265621, 5036050.731798332184553, 0.0 ] ], [ [ 518183.338621421542484, 5036059.123471049591899, 0.0 ], [ 518183.347206025558989, 5036059.123553073965013, 0.0 ], [ 518183.373041907849256, 5036059.115360365249217, 0.0 ], [ 518183.390392907604109, 5036059.098629831336439, 0.0 ], [ 518183.399068504397292, 5036059.090255971066654, 0.0 ], [ 518183.407839264313225, 5036059.073443453758955, 0.0 ], [ 518183.408029784506653, 5036059.056548953056335, 0.0 ], [ 518183.408124947629403, 5036059.048110296018422, 0.0 ], [ 518183.385337388201151, 5036058.785991001874208, 0.0 ], [ 518183.385328659613151, 5036058.785990918055177, 0.0 ], [ 518183.308102137700189, 5036058.785253030247986, 0.0 ], [ 518183.288083855470177, 5036059.038506568409503, 0.0 ], [ 518183.2879884983995, 5036059.046962411142886, 0.0 ], [ 518183.287607458012644, 5036059.080751411616802, 0.0 ], [ 518183.287512294889893, 5036059.089190068654716, 0.0 ], [ 518183.295997177541722, 5036059.09772789478302, 0.0 ], [ 518183.304482254141476, 5036059.106248533353209, 0.0 ], [ 518183.321547376515809, 5036059.114868342876434, 0.0 ], [ 518183.338612692838069, 5036059.123470965772867, 0.0 ], [ 518183.338621421542484, 5036059.123471049591899, 0.0 ] ], [ [ 518186.384728729201015, 5036059.152576134540141, 0.0 ], [ 518186.38473745790543, 5036059.152576218359172, 0.0 ], [ 518186.393322061921936, 5036059.152658242732286, 0.0 ], [ 518186.419157944212202, 5036059.14446553401649, 0.0 ], [ 518186.436508943967056, 5036059.127735000103712, 0.0 ], [ 518186.445184540760238, 5036059.119361139833927, 0.0 ], [ 518186.453955300676171, 5036059.102548622526228, 0.0 ], [ 518186.454145820869599, 5036059.085654121823609, 0.0 ], [ 518186.454240983992349, 5036059.077215464785695, 0.0 ], [ 518186.431453424564097, 5036058.815096170641482, 0.0 ], [ 518186.431444695976097, 5036058.81509608682245, 0.0 ], [ 518186.354218174063135, 5036058.81435819901526, 0.0 ], [ 518186.334199891833123, 5036059.067611737176776, 0.0 ], [ 518186.334104534762446, 5036059.076067579910159, 0.0 ], [ 518186.33372349437559, 5036059.109856580384076, 0.0 ], [ 518186.333628331252839, 5036059.118295237421989, 0.0 ], [ 518186.342113213904668, 5036059.126833063550293, 0.0 ], [ 518186.350598290504422, 5036059.135353702120483, 0.0 ], [ 518186.367663412878755, 5036059.143973511643708, 0.0 ], [ 518186.384728729201015, 5036059.152576134540141, 0.0 ] ], [ [ 518189.430831672565546, 5036059.181681178510189, 0.0 ], [ 518189.430840401269961, 5036059.181681262329221, 0.0 ], [ 518189.439425005286466, 5036059.181763286702335, 0.0 ], [ 518189.465260887576733, 5036059.173570577986538, 0.0 ], [ 518189.482611887331586, 5036059.156840044073761, 0.0 ], [ 518189.491287484124769, 5036059.148466183803976, 0.0 ], [ 518189.500058244040702, 5036059.131653666496277, 0.0 ], [ 518189.500248764234129, 5036059.114759165793657, 0.0 ], [ 518189.50034392735688, 5036059.106320508755744, 0.0 ], [ 518189.477556367928628, 5036058.84420121461153, 0.0 ], [ 518189.477547639340628, 5036058.844201130792499, 0.0 ], [ 518189.400321117427666, 5036058.843463242985308, 0.0 ], [ 518189.380302835197654, 5036059.096716781146824, 0.0 ], [ 518189.380207478126977, 5036059.105172623880208, 0.0 ], [ 518189.379826437740121, 5036059.138961624354124, 0.0 ], [ 518189.37973127461737, 5036059.147400281392038, 0.0 ], [ 518189.388216157269198, 5036059.155938107520342, 0.0 ], [ 518189.396701233868953, 5036059.164458746090531, 0.0 ], [ 518189.413766356243286, 5036059.173078555613756, 0.0 ], [ 518189.430831672565546, 5036059.181681178510189, 0.0 ] ], [ [ 518192.476947708928492, 5036059.210786347277462, 0.0 ], [ 518192.476956437632907, 5036059.210786431096494, 0.0 ], [ 518192.485541041649412, 5036059.210868455469608, 0.0 ], [ 518192.511376923939679, 5036059.202675746753812, 0.0 ], [ 518192.528727923694532, 5036059.185945212841034, 0.0 ], [ 518192.537403520487715, 5036059.177571352571249, 0.0 ], [ 518192.546174280403648, 5036059.16075883526355, 0.0 ], [ 518192.546364800597075, 5036059.143864334560931, 0.0 ], [ 518192.546459963719826, 5036059.135425677523017, 0.0 ], [ 518192.523672404291574, 5036058.873306383378804, 0.0 ], [ 518192.523663675703574, 5036058.873306299559772, 0.0 ], [ 518192.446437153790612, 5036058.872568411752582, 0.0 ], [ 518192.4264188715606, 5036059.125821949914098, 0.0 ], [ 518192.426323514489923, 5036059.134277792647481, 0.0 ], [ 518192.425942474103067, 5036059.168066793121397, 0.0 ], [ 518192.425847310980316, 5036059.176505450159311, 0.0 ], [ 518192.434332193632144, 5036059.185043276287615, 0.0 ], [ 518192.442817270231899, 5036059.193563914857805, 0.0 ], [ 518192.459882392606232, 5036059.20218372438103, 0.0 ], [ 518192.476947708928492, 5036059.210786347277462, 0.0 ] ], [ [ 518193.532356475654524, 5036059.220870614983141, 0.0 ], [ 518193.540941079671029, 5036059.220952639356256, 0.0 ], [ 518193.566776961961295, 5036059.212759930640459, 0.0 ], [ 518193.584127961716149, 5036059.196029396727681, 0.0 ], [ 518193.592803558509331, 5036059.187655536457896, 0.0 ], [ 518193.601574318425264, 5036059.170843019150198, 0.0 ], [ 518193.601764838618692, 5036059.153948518447578, 0.0 ], [ 518193.601860001741443, 5036059.145509861409664, 0.0 ], [ 518193.579072442313191, 5036058.883390567265451, 0.0 ], [ 518193.579063713725191, 5036058.883390483446419, 0.0 ], [ 518193.501837191812228, 5036058.882652595639229, 0.0 ], [ 518193.481818909582216, 5036059.135906133800745, 0.0 ], [ 518193.481723552511539, 5036059.144361976534128, 0.0 ], [ 518193.481342512124684, 5036059.178150977008045, 0.0 ], [ 518193.481247349001933, 5036059.186589634045959, 0.0 ], [ 518193.489732231653761, 5036059.195127460174263, 0.0 ], [ 518193.498217308253516, 5036059.203648098744452, 0.0 ], [ 518193.515282430627849, 5036059.212267908267677, 0.0 ], [ 518193.532347746950109, 5036059.22087053116411, 0.0 ], [ 518193.532356475654524, 5036059.220870614983141, 0.0 ] ], [ [ 518187.232953634869773, 5036067.64298609085381, 0.0 ], [ 518187.241538238886278, 5036067.643068115226924, 0.0 ], [ 518187.267374121176545, 5036067.634875406511128, 0.0 ], [ 518187.284725120931398, 5036067.61814487259835, 0.0 ], [ 518187.29340071772458, 5036067.609771012328565, 0.0 ], [ 518187.302171477640513, 5036067.592958495020866, 0.0 ], [ 518187.302361997833941, 5036067.576063994318247, 0.0 ], [ 518187.302457160956692, 5036067.567625337280333, 0.0 ], [ 518187.27966960152844, 5036067.30550604313612, 0.0 ], [ 518187.27966087294044, 5036067.305505959317088, 0.0 ], [ 518187.202434351027478, 5036067.304768071509898, 0.0 ], [ 518187.182416068797465, 5036067.558021609671414, 0.0 ], [ 518187.182320711726788, 5036067.566477452404797, 0.0 ], [ 518187.181939671339933, 5036067.600266452878714, 0.0 ], [ 518187.181844508217182, 5036067.608705109916627, 0.0 ], [ 518187.19032939086901, 5036067.617242936044931, 0.0 ], [ 518187.198814467468765, 5036067.625763574615121, 0.0 ], [ 518187.215879589843098, 5036067.634383384138346, 0.0 ], [ 518187.232944906165358, 5036067.642986007034779, 0.0 ], [ 518187.232953634869773, 5036067.64298609085381, 0.0 ] ], [ [ 518190.279060942528304, 5036067.672091175802052, 0.0 ], [ 518190.279069671232719, 5036067.672091259621084, 0.0 ], [ 518190.287654275249224, 5036067.672173283994198, 0.0 ], [ 518190.313490157539491, 5036067.663980575278401, 0.0 ], [ 518190.330841157294344, 5036067.647250041365623, 0.0 ], [ 518190.339516754087526, 5036067.638876181095839, 0.0 ], [ 518190.348287514003459, 5036067.62206366378814, 0.0 ], [ 518190.348478034196887, 5036067.60516916308552, 0.0 ], [ 518190.348573197319638, 5036067.596730506047606, 0.0 ], [ 518190.325785637891386, 5036067.334611211903393, 0.0 ], [ 518190.325776909303386, 5036067.334611128084362, 0.0 ], [ 518190.248550387390424, 5036067.333873240277171, 0.0 ], [ 518190.228532105160411, 5036067.587126778438687, 0.0 ], [ 518190.228436748089734, 5036067.595582621172071, 0.0 ], [ 518190.228055707702879, 5036067.629371621645987, 0.0 ], [ 518190.227960544580128, 5036067.637810278683901, 0.0 ], [ 518190.236445427231956, 5036067.646348104812205, 0.0 ], [ 518190.244930503831711, 5036067.654868743382394, 0.0 ], [ 518190.261995626206044, 5036067.663488552905619, 0.0 ], [ 518190.279060942528304, 5036067.672091175802052, 0.0 ] ], [ [ 518193.325163885892835, 5036067.7011962197721, 0.0 ], [ 518193.32517261459725, 5036067.701196303591132, 0.0 ], [ 518193.333757218613755, 5036067.701278327964246, 0.0 ], [ 518193.359593100904021, 5036067.69308561924845, 0.0 ], [ 518193.376944100658875, 5036067.676355085335672, 0.0 ], [ 518193.385619697452057, 5036067.667981225065887, 0.0 ], [ 518193.39439045736799, 5036067.651168707758188, 0.0 ], [ 518193.394580977561418, 5036067.634274207055569, 0.0 ], [ 518193.394676140684169, 5036067.625835550017655, 0.0 ], [ 518193.371888581255917, 5036067.363716255873442, 0.0 ], [ 518193.371879852667917, 5036067.36371617205441, 0.0 ], [ 518193.294653330754954, 5036067.36297828424722, 0.0 ], [ 518193.274635048524942, 5036067.616231822408736, 0.0 ], [ 518193.274539691454265, 5036067.624687665142119, 0.0 ], [ 518193.27415865106741, 5036067.658476665616035, 0.0 ], [ 518193.274063487944659, 5036067.666915322653949, 0.0 ], [ 518193.282548370596487, 5036067.675453148782253, 0.0 ], [ 518193.291033447196241, 5036067.683973787352443, 0.0 ], [ 518193.308098569570575, 5036067.692593596875668, 0.0 ], [ 518193.325163885892835, 5036067.7011962197721, 0.0 ] ], [ [ 518195.867526786925737, 5036050.76090329233557, 0.0 ], [ 518195.867535515630152, 5036050.760903376154602, 0.0 ], [ 518195.876120119646657, 5036050.760985400527716, 0.0 ], [ 518195.901956001936924, 5036050.752792691811919, 0.0 ], [ 518195.919307001691777, 5036050.736062157899141, 0.0 ], [ 518195.927982598484959, 5036050.727688297629356, 0.0 ], [ 518195.936753358400892, 5036050.710875780321658, 0.0 ], [ 518195.93694387859432, 5036050.693981279619038, 0.0 ], [ 518195.937039041717071, 5036050.685542622581124, 0.0 ], [ 518195.914251482288819, 5036050.423423328436911, 0.0 ], [ 518195.914242753700819, 5036050.423423244617879, 0.0 ], [ 518195.837016231787857, 5036050.422685356810689, 0.0 ], [ 518195.816997949557845, 5036050.675938894972205, 0.0 ], [ 518195.816902592487168, 5036050.684394737705588, 0.0 ], [ 518195.816521552100312, 5036050.718183738179505, 0.0 ], [ 518195.816426388977561, 5036050.726622395217419, 0.0 ], [ 518195.824911271629389, 5036050.735160221345723, 0.0 ], [ 518195.833396348229144, 5036050.743680859915912, 0.0 ], [ 518195.850461470603477, 5036050.752300669439137, 0.0 ], [ 518195.867526786925737, 5036050.76090329233557, 0.0 ] ], [ [ 518198.913642823288683, 5036050.790008461102843, 0.0 ], [ 518198.913651551993098, 5036050.790008544921875, 0.0 ], [ 518198.922236156009603, 5036050.790090569294989, 0.0 ], [ 518198.94807203829987, 5036050.781897860579193, 0.0 ], [ 518198.965423038054723, 5036050.765167326666415, 0.0 ], [ 518198.974098634847905, 5036050.75679346639663, 0.0 ], [ 518198.982869394763838, 5036050.739980949088931, 0.0 ], [ 518198.983059914957266, 5036050.723086448386312, 0.0 ], [ 518198.983155078080017, 5036050.714647791348398, 0.0 ], [ 518198.960367518651765, 5036050.452528497204185, 0.0 ], [ 518198.960358790063765, 5036050.452528413385153, 0.0 ], [ 518198.883132268150803, 5036050.451790525577962, 0.0 ], [ 518198.863113985920791, 5036050.705044063739479, 0.0 ], [ 518198.863018628850114, 5036050.713499906472862, 0.0 ], [ 518198.862637588463258, 5036050.747288906946778, 0.0 ], [ 518198.862542425340507, 5036050.755727563984692, 0.0 ], [ 518198.871027307992335, 5036050.764265390112996, 0.0 ], [ 518198.87951238459209, 5036050.772786028683186, 0.0 ], [ 518198.896577506966423, 5036050.78140583820641, 0.0 ], [ 518198.913642823288683, 5036050.790008461102843, 0.0 ] ], [ [ 518199.960466985765379, 5036050.800010703504086, 0.0 ], [ 518199.960475714469794, 5036050.800010787323117, 0.0 ], [ 518199.969060318486299, 5036050.800092811696231, 0.0 ], [ 518199.994896200776566, 5036050.791900102980435, 0.0 ], [ 518200.012247200531419, 5036050.775169569067657, 0.0 ], [ 518200.020922797324602, 5036050.766795708797872, 0.0 ], [ 518200.029693557240535, 5036050.749983191490173, 0.0 ], [ 518200.029884077433962, 5036050.733088690787554, 0.0 ], [ 518200.029979240556713, 5036050.72465003374964, 0.0 ], [ 518200.007191681128461, 5036050.462530739605427, 0.0 ], [ 518200.007182952540461, 5036050.462530655786395, 0.0 ], [ 518199.929956430627499, 5036050.461792767979205, 0.0 ], [ 518199.909938148397487, 5036050.715046306140721, 0.0 ], [ 518199.90984279132681, 5036050.723502148874104, 0.0 ], [ 518199.909461750939954, 5036050.757291149348021, 0.0 ], [ 518199.909366587817203, 5036050.765729806385934, 0.0 ], [ 518199.917851470469031, 5036050.774267632514238, 0.0 ], [ 518199.926336547068786, 5036050.782788271084428, 0.0 ], [ 518199.943401669443119, 5036050.791408080607653, 0.0 ], [ 518199.960466985765379, 5036050.800010703504086, 0.0 ] ], [ [ 518203.00659175083274, 5036050.829115956090391, 0.0 ], [ 518203.015176354849245, 5036050.829197980463505, 0.0 ], [ 518203.041012237139512, 5036050.821005271747708, 0.0 ], [ 518203.058363236894365, 5036050.80427473783493, 0.0 ], [ 518203.067038833687548, 5036050.795900877565145, 0.0 ], [ 518203.075809593603481, 5036050.779088360257447, 0.0 ], [ 518203.076000113796908, 5036050.762193859554827, 0.0 ], [ 518203.076095276919659, 5036050.753755202516913, 0.0 ], [ 518203.053307717491407, 5036050.4916359083727, 0.0 ], [ 518203.053298988903407, 5036050.491635824553668, 0.0 ], [ 518202.976072466990445, 5036050.490897936746478, 0.0 ], [ 518202.956054184760433, 5036050.744151474907994, 0.0 ], [ 518202.955958827689756, 5036050.752607317641377, 0.0 ], [ 518202.9555777873029, 5036050.786396318115294, 0.0 ], [ 518202.955482624180149, 5036050.794834975153208, 0.0 ], [ 518202.963967506831978, 5036050.803372801281512, 0.0 ], [ 518202.972452583431732, 5036050.811893439851701, 0.0 ], [ 518202.989517705806065, 5036050.820513249374926, 0.0 ], [ 518203.006583022128325, 5036050.829115872271359, 0.0 ], [ 518203.00659175083274, 5036050.829115956090391, 0.0 ] ], [ [ 518196.57847251201747, 5036059.249975783750415, 0.0 ], [ 518196.587057116033975, 5036059.250057808123529, 0.0 ], [ 518196.612892998324241, 5036059.241865099407732, 0.0 ], [ 518196.630243998079095, 5036059.225134565494955, 0.0 ], [ 518196.638919594872277, 5036059.21676070522517, 0.0 ], [ 518196.64769035478821, 5036059.199948187917471, 0.0 ], [ 518196.647880874981638, 5036059.183053687214851, 0.0 ], [ 518196.647976038104389, 5036059.174615030176938, 0.0 ], [ 518196.625188478676137, 5036058.912495736032724, 0.0 ], [ 518196.625179750088137, 5036058.912495652213693, 0.0 ], [ 518196.547953228175174, 5036058.911757764406502, 0.0 ], [ 518196.527934945945162, 5036059.165011302568018, 0.0 ], [ 518196.527839588874485, 5036059.173467145301402, 0.0 ], [ 518196.52745854848763, 5036059.207256145775318, 0.0 ], [ 518196.527363385364879, 5036059.215694802813232, 0.0 ], [ 518196.535848268016707, 5036059.224232628941536, 0.0 ], [ 518196.544333344616462, 5036059.232753267511725, 0.0 ], [ 518196.561398466990795, 5036059.24137307703495, 0.0 ], [ 518196.578463783313055, 5036059.249975699931383, 0.0 ], [ 518196.57847251201747, 5036059.249975783750415, 0.0 ] ], [ [ 518199.624566726677585, 5036059.279080743901432, 0.0 ], [ 518199.624575455382001, 5036059.279080827720463, 0.0 ], [ 518199.633160059398506, 5036059.279162852093577, 0.0 ], [ 518199.658995941688772, 5036059.270970143377781, 0.0 ], [ 518199.676346941443626, 5036059.254239609465003, 0.0 ], [ 518199.685022538236808, 5036059.245865749195218, 0.0 ], [ 518199.693793298152741, 5036059.229053231887519, 0.0 ], [ 518199.693983818346169, 5036059.2121587311849, 0.0 ], [ 518199.69407898146892, 5036059.203720074146986, 0.0 ], [ 518199.671291422040667, 5036058.941600780002773, 0.0 ], [ 518199.671282693452667, 5036058.941600696183741, 0.0 ], [ 518199.594056171539705, 5036058.940862808376551, 0.0 ], [ 518199.574037889309693, 5036059.194116346538067, 0.0 ], [ 518199.573942532239016, 5036059.20257218927145, 0.0 ], [ 518199.573561491852161, 5036059.236361189745367, 0.0 ], [ 518199.57346632872941, 5036059.24479984678328, 0.0 ], [ 518199.581951211381238, 5036059.253337672911584, 0.0 ], [ 518199.590436287980992, 5036059.261858311481774, 0.0 ], [ 518199.607501410355326, 5036059.270478121004999, 0.0 ], [ 518199.624566726677585, 5036059.279080743901432, 0.0 ] ], [ [ 518202.670682763040531, 5036059.308185912668705, 0.0 ], [ 518202.670691491744947, 5036059.308185996487737, 0.0 ], [ 518202.679276095761452, 5036059.308268020860851, 0.0 ], [ 518202.705111978051718, 5036059.300075312145054, 0.0 ], [ 518202.722462977806572, 5036059.283344778232276, 0.0 ], [ 518202.731138574599754, 5036059.274970917962492, 0.0 ], [ 518202.739909334515687, 5036059.258158400654793, 0.0 ], [ 518202.740099854709115, 5036059.241263899952173, 0.0 ], [ 518202.740195017831866, 5036059.232825242914259, 0.0 ], [ 518202.717407458403613, 5036058.970705948770046, 0.0 ], [ 518202.717398729815613, 5036058.970705864951015, 0.0 ], [ 518202.640172207902651, 5036058.969967977143824, 0.0 ], [ 518202.620153925672639, 5036059.22322151530534, 0.0 ], [ 518202.620058568601962, 5036059.231677358038723, 0.0 ], [ 518202.619677528215107, 5036059.26546635851264, 0.0 ], [ 518202.619582365092356, 5036059.273905015550554, 0.0 ], [ 518202.628067247744184, 5036059.282442841678858, 0.0 ], [ 518202.636552324343938, 5036059.290963480249047, 0.0 ], [ 518202.653617446718272, 5036059.299583289772272, 0.0 ], [ 518202.670682763040531, 5036059.308185912668705, 0.0 ] ], [ [ 518203.717506925517228, 5036059.318188155069947, 0.0 ], [ 518203.717515654221643, 5036059.318188238888979, 0.0 ], [ 518203.726100258238148, 5036059.318270263262093, 0.0 ], [ 518203.751936140528414, 5036059.310077554546297, 0.0 ], [ 518203.769287140283268, 5036059.293347020633519, 0.0 ], [ 518203.77796273707645, 5036059.284973160363734, 0.0 ], [ 518203.786733496992383, 5036059.268160643056035, 0.0 ], [ 518203.786924017185811, 5036059.251266142353415, 0.0 ], [ 518203.787019180308562, 5036059.242827485315502, 0.0 ], [ 518203.764231620880309, 5036058.980708191171288, 0.0 ], [ 518203.76422289229231, 5036058.980708107352257, 0.0 ], [ 518203.686996370379347, 5036058.979970219545066, 0.0 ], [ 518203.666978088149335, 5036059.233223757706583, 0.0 ], [ 518203.666882731078658, 5036059.241679600439966, 0.0 ], [ 518203.666501690691803, 5036059.275468600913882, 0.0 ], [ 518203.666406527569052, 5036059.283907257951796, 0.0 ], [ 518203.67489141022088, 5036059.2924450840801, 0.0 ], [ 518203.683376486820634, 5036059.30096572265029, 0.0 ], [ 518203.700441609194968, 5036059.309585532173514, 0.0 ], [ 518203.717506925517228, 5036059.318188155069947, 0.0 ] ], [ [ 518196.371288650960196, 5036067.730301472358406, 0.0 ], [ 518196.379873254976701, 5036067.73038349673152, 0.0 ], [ 518196.405709137266967, 5036067.722190788015723, 0.0 ], [ 518196.423060137021821, 5036067.705460254102945, 0.0 ], [ 518196.431735733815003, 5036067.69708639383316, 0.0 ], [ 518196.440506493730936, 5036067.680273876525462, 0.0 ], [ 518196.440697013924364, 5036067.663379375822842, 0.0 ], [ 518196.440792177047115, 5036067.654940718784928, 0.0 ], [ 518196.418004617618863, 5036067.392821424640715, 0.0 ], [ 518196.417995889030863, 5036067.392821340821683, 0.0 ], [ 518196.3407693671179, 5036067.392083453014493, 0.0 ], [ 518196.320751084887888, 5036067.645336991176009, 0.0 ], [ 518196.320655727817211, 5036067.653792833909392, 0.0 ], [ 518196.320274687430356, 5036067.687581834383309, 0.0 ], [ 518196.320179524307605, 5036067.696020491421223, 0.0 ], [ 518196.328664406959433, 5036067.704558317549527, 0.0 ], [ 518196.337149483559188, 5036067.713078956119716, 0.0 ], [ 518196.354214605933521, 5036067.721698765642941, 0.0 ], [ 518196.371279922255781, 5036067.730301388539374, 0.0 ], [ 518196.371288650960196, 5036067.730301472358406, 0.0 ] ], [ [ 518197.426688688981812, 5036067.740385656245053, 0.0 ], [ 518197.435273292998318, 5036067.740467680618167, 0.0 ], [ 518197.461109175288584, 5036067.73227497190237, 0.0 ], [ 518197.478460175043438, 5036067.715544437989593, 0.0 ], [ 518197.48713577183662, 5036067.707170577719808, 0.0 ], [ 518197.495906531752553, 5036067.690358060412109, 0.0 ], [ 518197.496097051945981, 5036067.673463559709489, 0.0 ], [ 518197.496192215068731, 5036067.665024902671576, 0.0 ], [ 518197.473404655640479, 5036067.402905608527362, 0.0 ], [ 518197.473395927052479, 5036067.402905524708331, 0.0 ], [ 518197.396169405139517, 5036067.40216763690114, 0.0 ], [ 518197.376151122909505, 5036067.655421175062656, 0.0 ], [ 518197.376055765838828, 5036067.66387701779604, 0.0 ], [ 518197.375674725451972, 5036067.697666018269956, 0.0 ], [ 518197.375579562329222, 5036067.70610467530787, 0.0 ], [ 518197.38406444498105, 5036067.714642501436174, 0.0 ], [ 518197.392549521580804, 5036067.723163140006363, 0.0 ], [ 518197.409614643955138, 5036067.731782949529588, 0.0 ], [ 518197.426679960277397, 5036067.740385572426021, 0.0 ], [ 518197.426688688981812, 5036067.740385656245053, 0.0 ] ], [ [ 518200.472795996640343, 5036067.769490741193295, 0.0 ], [ 518200.472804725344758, 5036067.769490825012326, 0.0 ], [ 518200.481389329361264, 5036067.76957284938544, 0.0 ], [ 518200.50722521165153, 5036067.761380140669644, 0.0 ], [ 518200.524576211406384, 5036067.744649606756866, 0.0 ], [ 518200.533251808199566, 5036067.736275746487081, 0.0 ], [ 518200.542022568115499, 5036067.719463229179382, 0.0 ], [ 518200.542213088308927, 5036067.702568728476763, 0.0 ], [ 518200.542308251431677, 5036067.694130071438849, 0.0 ], [ 518200.519520692003425, 5036067.432010777294636, 0.0 ], [ 518200.519511963415425, 5036067.432010693475604, 0.0 ], [ 518200.442285441502463, 5036067.431272805668414, 0.0 ], [ 518200.422267159272451, 5036067.68452634382993, 0.0 ], [ 518200.422171802201774, 5036067.692982186563313, 0.0 ], [ 518200.421790761814918, 5036067.72677118703723, 0.0 ], [ 518200.421695598692168, 5036067.735209844075143, 0.0 ], [ 518200.430180481343996, 5036067.743747670203447, 0.0 ], [ 518200.43866555794375, 5036067.752268308773637, 0.0 ], [ 518200.455730680318084, 5036067.760888118296862, 0.0 ], [ 518200.472795996640343, 5036067.769490741193295, 0.0 ] ], [ [ 518203.518907668709289, 5036067.798595868982375, 0.0 ], [ 518203.527492272725794, 5036067.798677893355489, 0.0 ], [ 518203.553328155016061, 5036067.790485184639692, 0.0 ], [ 518203.570679154770914, 5036067.773754650726914, 0.0 ], [ 518203.579354751564097, 5036067.765380790457129, 0.0 ], [ 518203.58812551148003, 5036067.748568273149431, 0.0 ], [ 518203.588316031673457, 5036067.731673772446811, 0.0 ], [ 518203.588411194796208, 5036067.723235115408897, 0.0 ], [ 518203.565623635367956, 5036067.461115821264684, 0.0 ], [ 518203.565614906779956, 5036067.461115737445652, 0.0 ], [ 518203.488388384866994, 5036067.460377849638462, 0.0 ], [ 518203.468370102636982, 5036067.713631387799978, 0.0 ], [ 518203.468274745566305, 5036067.722087230533361, 0.0 ], [ 518203.467893705179449, 5036067.755876231007278, 0.0 ], [ 518203.467798542056698, 5036067.764314888045192, 0.0 ], [ 518203.476283424708527, 5036067.772852714173496, 0.0 ], [ 518203.484768501308281, 5036067.781373352743685, 0.0 ], [ 518203.501833623682614, 5036067.78999316226691, 0.0 ], [ 518203.518898940004874, 5036067.798595785163343, 0.0 ], [ 518203.518907668709289, 5036067.798595868982375, 0.0 ] ], [ [ 518206.052685965492856, 5036050.858220916241407, 0.0 ], [ 518206.052694694197271, 5036050.858221, 0.0 ], [ 518206.061279298213776, 5036050.858303024433553, 0.0 ], [ 518206.087115180504043, 5036050.850110315717757, 0.0 ], [ 518206.104466180258896, 5036050.833379781804979, 0.0 ], [ 518206.113141777052078, 5036050.825005921535194, 0.0 ], [ 518206.121912536968011, 5036050.808193404227495, 0.0 ], [ 518206.122103057161439, 5036050.791298903524876, 0.0 ], [ 518206.12219822028419, 5036050.782860246486962, 0.0 ], [ 518206.099410660855938, 5036050.520740952342749, 0.0 ], [ 518206.099401932267938, 5036050.520740868523717, 0.0 ], [ 518206.022175410354976, 5036050.520002980716527, 0.0 ], [ 518206.002157128124963, 5036050.773256518878043, 0.0 ], [ 518206.002061771054287, 5036050.781712361611426, 0.0 ], [ 518206.001680730667431, 5036050.815501362085342, 0.0 ], [ 518206.00158556754468, 5036050.823940019123256, 0.0 ], [ 518206.010070450196508, 5036050.83247784525156, 0.0 ], [ 518206.018555526796263, 5036050.84099848382175, 0.0 ], [ 518206.035620649170596, 5036050.849618293344975, 0.0 ], [ 518206.052685965492856, 5036050.858220916241407, 0.0 ] ], [ [ 518209.098802001855802, 5036050.887326085008681, 0.0 ], [ 518209.098810730560217, 5036050.887326168827713, 0.0 ], [ 518209.107395334576722, 5036050.887408193200827, 0.0 ], [ 518209.133231216866989, 5036050.87921548448503, 0.0 ], [ 518209.150582216621842, 5036050.862484950572252, 0.0 ], [ 518209.159257813415024, 5036050.854111090302467, 0.0 ], [ 518209.168028573330957, 5036050.837298572994769, 0.0 ], [ 518209.168219093524385, 5036050.820404072292149, 0.0 ], [ 518209.168314256647136, 5036050.811965415254235, 0.0 ], [ 518209.145526697218884, 5036050.549846121110022, 0.0 ], [ 518209.145517968630884, 5036050.54984603729099, 0.0 ], [ 518209.068291446717922, 5036050.5491081494838, 0.0 ], [ 518209.04827316448791, 5036050.802361687645316, 0.0 ], [ 518209.048177807417233, 5036050.810817530378699, 0.0 ], [ 518209.047796767030377, 5036050.844606530852616, 0.0 ], [ 518209.047701603907626, 5036050.85304518789053, 0.0 ], [ 518209.056186486559454, 5036050.861583014018834, 0.0 ], [ 518209.064671563159209, 5036050.870103652589023, 0.0 ], [ 518209.081736685533542, 5036050.878723462112248, 0.0 ], [ 518209.098802001855802, 5036050.887326085008681, 0.0 ] ], [ [ 518210.154210768581834, 5036050.89741035271436, 0.0 ], [ 518210.162795372598339, 5036050.897492377087474, 0.0 ], [ 518210.188631254888605, 5036050.889299668371677, 0.0 ], [ 518210.205982254643459, 5036050.872569134458899, 0.0 ], [ 518210.214657851436641, 5036050.864195274189115, 0.0 ], [ 518210.223428611352574, 5036050.847382756881416, 0.0 ], [ 518210.223619131546002, 5036050.830488256178796, 0.0 ], [ 518210.223714294668753, 5036050.822049599140882, 0.0 ], [ 518210.2009267352405, 5036050.559930304996669, 0.0 ], [ 518210.2009180066525, 5036050.559930221177638, 0.0 ], [ 518210.123691484739538, 5036050.559192333370447, 0.0 ], [ 518210.103673202509526, 5036050.812445871531963, 0.0 ], [ 518210.103577845438849, 5036050.820901714265347, 0.0 ], [ 518210.103196805051994, 5036050.854690714739263, 0.0 ], [ 518210.103101641929243, 5036050.863129371777177, 0.0 ], [ 518210.111586524581071, 5036050.871667197905481, 0.0 ], [ 518210.120071601180825, 5036050.88018783647567, 0.0 ], [ 518210.137136723555159, 5036050.888807645998895, 0.0 ], [ 518210.154202039877418, 5036050.897410268895328, 0.0 ], [ 518210.154210768581834, 5036050.89741035271436, 0.0 ] ], [ [ 518213.200318076240364, 5036050.926515437662601, 0.0 ], [ 518213.20032680494478, 5036050.926515521481633, 0.0 ], [ 518213.208911408961285, 5036050.926597545854747, 0.0 ], [ 518213.234747291251551, 5036050.918404837138951, 0.0 ], [ 518213.252098291006405, 5036050.901674303226173, 0.0 ], [ 518213.260773887799587, 5036050.893300442956388, 0.0 ], [ 518213.26954464771552, 5036050.876487925648689, 0.0 ], [ 518213.269735167908948, 5036050.85959342494607, 0.0 ], [ 518213.269830331031699, 5036050.851154767908156, 0.0 ], [ 518213.247042771603446, 5036050.589035473763943, 0.0 ], [ 518213.247034043015447, 5036050.589035389944911, 0.0 ], [ 518213.169807521102484, 5036050.588297502137721, 0.0 ], [ 518213.149789238872472, 5036050.841551040299237, 0.0 ], [ 518213.149693881801795, 5036050.85000688303262, 0.0 ], [ 518213.14931284141494, 5036050.883795883506536, 0.0 ], [ 518213.149217678292189, 5036050.89223454054445, 0.0 ], [ 518213.157702560944017, 5036050.900772366672754, 0.0 ], [ 518213.166187637543771, 5036050.909293005242944, 0.0 ], [ 518213.183252759918105, 5036050.917912814766169, 0.0 ], [ 518213.200318076240364, 5036050.926515437662601, 0.0 ] ], [ [ 518206.763622961880174, 5036059.347293323837221, 0.0 ], [ 518206.763631690584589, 5036059.347293407656252, 0.0 ], [ 518206.772216294601094, 5036059.347375432029366, 0.0 ], [ 518206.79805217689136, 5036059.33918272331357, 0.0 ], [ 518206.815403176646214, 5036059.322452189400792, 0.0 ], [ 518206.824078773439396, 5036059.314078329131007, 0.0 ], [ 518206.832849533355329, 5036059.297265811823308, 0.0 ], [ 518206.833040053548757, 5036059.280371311120689, 0.0 ], [ 518206.833135216671508, 5036059.271932654082775, 0.0 ], [ 518206.810347657243256, 5036059.009813359938562, 0.0 ], [ 518206.810338928655256, 5036059.00981327611953, 0.0 ], [ 518206.733112406742293, 5036059.00907538831234, 0.0 ], [ 518206.713094124512281, 5036059.262328926473856, 0.0 ], [ 518206.712998767441604, 5036059.270784769207239, 0.0 ], [ 518206.712617727054749, 5036059.304573769681156, 0.0 ], [ 518206.712522563931998, 5036059.313012426719069, 0.0 ], [ 518206.721007446583826, 5036059.321550252847373, 0.0 ], [ 518206.72949252318358, 5036059.330070891417563, 0.0 ], [ 518206.746557645557914, 5036059.338690700940788, 0.0 ], [ 518206.763622961880174, 5036059.347293323837221, 0.0 ] ], [ [ 518209.80973463394912, 5036059.376398451626301, 0.0 ], [ 518209.818319237965625, 5036059.376480475999415, 0.0 ], [ 518209.844155120255891, 5036059.368287767283618, 0.0 ], [ 518209.861506120010745, 5036059.351557233370841, 0.0 ], [ 518209.870181716803927, 5036059.343183373101056, 0.0 ], [ 518209.87895247671986, 5036059.326370855793357, 0.0 ], [ 518209.879142996913288, 5036059.309476355090737, 0.0 ], [ 518209.879238160036039, 5036059.301037698052824, 0.0 ], [ 518209.856450600607786, 5036059.03891840390861, 0.0 ], [ 518209.856441872019786, 5036059.038918320089579, 0.0 ], [ 518209.779215350106824, 5036059.038180432282388, 0.0 ], [ 518209.759197067876812, 5036059.291433970443904, 0.0 ], [ 518209.759101710806135, 5036059.299889813177288, 0.0 ], [ 518209.758720670419279, 5036059.333678813651204, 0.0 ], [ 518209.758625507296529, 5036059.342117470689118, 0.0 ], [ 518209.767110389948357, 5036059.350655296817422, 0.0 ], [ 518209.775595466548111, 5036059.359175935387611, 0.0 ], [ 518209.792660588922445, 5036059.367795744910836, 0.0 ], [ 518209.809725905244704, 5036059.376398367807269, 0.0 ], [ 518209.80973463394912, 5036059.376398451626301, 0.0 ] ], [ [ 518212.855850670312066, 5036059.405503620393574, 0.0 ], [ 518212.864435274328571, 5036059.405585644766688, 0.0 ], [ 518212.890271156618837, 5036059.397392936050892, 0.0 ], [ 518212.907622156373691, 5036059.380662402138114, 0.0 ], [ 518212.916297753166873, 5036059.372288541868329, 0.0 ], [ 518212.925068513082806, 5036059.35547602456063, 0.0 ], [ 518212.925259033276234, 5036059.338581523858011, 0.0 ], [ 518212.925354196398985, 5036059.330142866820097, 0.0 ], [ 518212.902566636970732, 5036059.068023572675884, 0.0 ], [ 518212.902557908382732, 5036059.068023488856852, 0.0 ], [ 518212.82533138646977, 5036059.067285601049662, 0.0 ], [ 518212.805313104239758, 5036059.320539139211178, 0.0 ], [ 518212.805217747169081, 5036059.328994981944561, 0.0 ], [ 518212.804836706782226, 5036059.362783982418478, 0.0 ], [ 518212.804741543659475, 5036059.371222639456391, 0.0 ], [ 518212.813226426311303, 5036059.379760465584695, 0.0 ], [ 518212.821711502911057, 5036059.388281104154885, 0.0 ], [ 518212.838776625285391, 5036059.39690091367811, 0.0 ], [ 518212.85584194160765, 5036059.405503536574543, 0.0 ], [ 518212.855850670312066, 5036059.405503620393574, 0.0 ] ], [ [ 518206.56501497636782, 5036067.827700953930616, 0.0 ], [ 518206.565023705072235, 5036067.827701037749648, 0.0 ], [ 518206.57360830908874, 5036067.827783062122762, 0.0 ], [ 518206.599444191379007, 5036067.819590353406966, 0.0 ], [ 518206.61679519113386, 5036067.802859819494188, 0.0 ], [ 518206.625470787927043, 5036067.794485959224403, 0.0 ], [ 518206.634241547842976, 5036067.777673441916704, 0.0 ], [ 518206.634432068036404, 5036067.760778941214085, 0.0 ], [ 518206.634527231159154, 5036067.752340284176171, 0.0 ], [ 518206.611739671730902, 5036067.490220990031958, 0.0 ], [ 518206.611730943142902, 5036067.490220906212926, 0.0 ], [ 518206.53450442122994, 5036067.489483018405735, 0.0 ], [ 518206.514486138999928, 5036067.742736556567252, 0.0 ], [ 518206.514390781929251, 5036067.751192399300635, 0.0 ], [ 518206.514009741542395, 5036067.784981399774551, 0.0 ], [ 518206.513914578419644, 5036067.793420056812465, 0.0 ], [ 518206.522399461071473, 5036067.801957882940769, 0.0 ], [ 518206.530884537671227, 5036067.810478521510959, 0.0 ], [ 518206.54794966004556, 5036067.819098331034184, 0.0 ], [ 518206.56501497636782, 5036067.827700953930616, 0.0 ] ], [ [ 518207.611839138844516, 5036067.837703196331859, 0.0 ], [ 518207.611847867548931, 5036067.83770328015089, 0.0 ], [ 518207.620432471565437, 5036067.837785304524004, 0.0 ], [ 518207.646268353855703, 5036067.829592595808208, 0.0 ], [ 518207.663619353610557, 5036067.81286206189543, 0.0 ], [ 518207.672294950403739, 5036067.804488201625645, 0.0 ], [ 518207.681065710319672, 5036067.787675684317946, 0.0 ], [ 518207.6812562305131, 5036067.770781183615327, 0.0 ], [ 518207.68135139363585, 5036067.762342526577413, 0.0 ], [ 518207.658563834207598, 5036067.5002232324332, 0.0 ], [ 518207.658555105619598, 5036067.500223148614168, 0.0 ], [ 518207.581328583706636, 5036067.499485260806978, 0.0 ], [ 518207.561310301476624, 5036067.752738798968494, 0.0 ], [ 518207.561214944405947, 5036067.761194641701877, 0.0 ], [ 518207.560833904019091, 5036067.794983642175794, 0.0 ], [ 518207.56073874089634, 5036067.803422299213707, 0.0 ], [ 518207.569223623548169, 5036067.811960125342011, 0.0 ], [ 518207.577708700147923, 5036067.820480763912201, 0.0 ], [ 518207.594773822522257, 5036067.829100573435426, 0.0 ], [ 518207.611839138844516, 5036067.837703196331859, 0.0 ] ], [ [ 518210.657955175207462, 5036067.866808365099132, 0.0 ], [ 518210.657963903911877, 5036067.866808448918164, 0.0 ], [ 518210.666548507928383, 5036067.866890473291278, 0.0 ], [ 518210.692384390218649, 5036067.858697764575481, 0.0 ], [ 518210.709735389973503, 5036067.841967230662704, 0.0 ], [ 518210.718410986766685, 5036067.833593370392919, 0.0 ], [ 518210.727181746682618, 5036067.81678085308522, 0.0 ], [ 518210.727372266876046, 5036067.7998863523826, 0.0 ], [ 518210.727467429998796, 5036067.791447695344687, 0.0 ], [ 518210.704679870570544, 5036067.529328401200473, 0.0 ], [ 518210.704671141982544, 5036067.529328317381442, 0.0 ], [ 518210.627444620069582, 5036067.528590429574251, 0.0 ], [ 518210.60742633783957, 5036067.781843967735767, 0.0 ], [ 518210.607330980768893, 5036067.790299810469151, 0.0 ], [ 518210.606949940382037, 5036067.824088810943067, 0.0 ], [ 518210.606854777259286, 5036067.832527467980981, 0.0 ], [ 518210.615339659911115, 5036067.841065294109285, 0.0 ], [ 518210.623824736510869, 5036067.849585932679474, 0.0 ], [ 518210.640889858885203, 5036067.858205742202699, 0.0 ], [ 518210.657955175207462, 5036067.866808365099132, 0.0 ] ], [ [ 518213.704066847276408, 5036067.895913492888212, 0.0 ], [ 518213.712651451292913, 5036067.895995517261326, 0.0 ], [ 518213.73848733358318, 5036067.88780280854553, 0.0 ], [ 518213.755838333338033, 5036067.871072274632752, 0.0 ], [ 518213.764513930131216, 5036067.862698414362967, 0.0 ], [ 518213.773284690047149, 5036067.845885897055268, 0.0 ], [ 518213.773475210240576, 5036067.828991396352649, 0.0 ], [ 518213.773570373363327, 5036067.820552739314735, 0.0 ], [ 518213.750782813935075, 5036067.558433445170522, 0.0 ], [ 518213.750774085347075, 5036067.55843336135149, 0.0 ], [ 518213.673547563434113, 5036067.5576954735443, 0.0 ], [ 518213.653529281204101, 5036067.810949011705816, 0.0 ], [ 518213.653433924133424, 5036067.819404854439199, 0.0 ], [ 518213.653052883746568, 5036067.853193854913116, 0.0 ], [ 518213.652957720623817, 5036067.861632511951029, 0.0 ], [ 518213.661442603275646, 5036067.870170338079333, 0.0 ], [ 518213.6699276798754, 5036067.878690976649523, 0.0 ], [ 518213.686992802249733, 5036067.887310786172748, 0.0 ], [ 518213.704058118571993, 5036067.89591340906918, 0.0 ], [ 518213.704066847276408, 5036067.895913492888212, 0.0 ] ], [ [ 518216.246429748309311, 5036050.955620565451682, 0.0 ], [ 518216.255014352325816, 5036050.955702589824796, 0.0 ], [ 518216.280850234616082, 5036050.947509881108999, 0.0 ], [ 518216.298201234370936, 5036050.930779347196221, 0.0 ], [ 518216.306876831164118, 5036050.922405486926436, 0.0 ], [ 518216.315647591080051, 5036050.905592969618738, 0.0 ], [ 518216.315838111273479, 5036050.888698468916118, 0.0 ], [ 518216.31593327439623, 5036050.880259811878204, 0.0 ], [ 518216.293145714967977, 5036050.618140517733991, 0.0 ], [ 518216.293136986379977, 5036050.618140433914959, 0.0 ], [ 518216.215910464467015, 5036050.617402546107769, 0.0 ], [ 518216.195892182237003, 5036050.870656084269285, 0.0 ], [ 518216.195796825166326, 5036050.879111927002668, 0.0 ], [ 518216.19541578477947, 5036050.912900927476585, 0.0 ], [ 518216.19532062165672, 5036050.921339584514499, 0.0 ], [ 518216.203805504308548, 5036050.929877410642803, 0.0 ], [ 518216.212290580908302, 5036050.938398049212992, 0.0 ], [ 518216.229355703282636, 5036050.947017858736217, 0.0 ], [ 518216.246421019604895, 5036050.95562048163265, 0.0 ], [ 518216.246429748309311, 5036050.955620565451682, 0.0 ] ], [ [ 518219.292537055967841, 5036050.984725650399923, 0.0 ], [ 518219.292545784672257, 5036050.984725734218955, 0.0 ], [ 518219.301130388688762, 5036050.984807758592069, 0.0 ], [ 518219.326966270979028, 5036050.976615049876273, 0.0 ], [ 518219.344317270733882, 5036050.959884515963495, 0.0 ], [ 518219.352992867527064, 5036050.95151065569371, 0.0 ], [ 518219.361763627442997, 5036050.934698138386011, 0.0 ], [ 518219.361954147636425, 5036050.917803637683392, 0.0 ], [ 518219.362049310759176, 5036050.909364980645478, 0.0 ], [ 518219.339261751330923, 5036050.647245686501265, 0.0 ], [ 518219.339253022742923, 5036050.647245602682233, 0.0 ], [ 518219.262026500829961, 5036050.646507714875042, 0.0 ], [ 518219.242008218599949, 5036050.899761253036559, 0.0 ], [ 518219.241912861529272, 5036050.908217095769942, 0.0 ], [ 518219.241531821142416, 5036050.942006096243858, 0.0 ], [ 518219.241436658019666, 5036050.950444753281772, 0.0 ], [ 518219.249921540671494, 5036050.958982579410076, 0.0 ], [ 518219.258406617271248, 5036050.967503217980266, 0.0 ], [ 518219.275471739645582, 5036050.97612302750349, 0.0 ], [ 518219.292537055967841, 5036050.984725650399923, 0.0 ] ], [ [ 518220.347954357566778, 5036050.994827187620103, 0.0 ], [ 518220.356538961583283, 5036050.994909211993217, 0.0 ], [ 518220.382374843873549, 5036050.986716503277421, 0.0 ], [ 518220.399725843628403, 5036050.969985969364643, 0.0 ], [ 518220.408401440421585, 5036050.961612109094858, 0.0 ], [ 518220.417172200337518, 5036050.944799591787159, 0.0 ], [ 518220.417362720530946, 5036050.92790509108454, 0.0 ], [ 518220.417457883653697, 5036050.919466434046626, 0.0 ], [ 518220.394670324225444, 5036050.657347139902413, 0.0 ], [ 518220.394661595637444, 5036050.657347056083381, 0.0 ], [ 518220.317435073724482, 5036050.656609168276191, 0.0 ], [ 518220.29741679149447, 5036050.909862706437707, 0.0 ], [ 518220.297321434423793, 5036050.91831854917109, 0.0 ], [ 518220.296940394036938, 5036050.952107549645007, 0.0 ], [ 518220.296845230914187, 5036050.96054620668292, 0.0 ], [ 518220.305330113566015, 5036050.969084032811224, 0.0 ], [ 518220.313815190165769, 5036050.977604671381414, 0.0 ], [ 518220.330880312540103, 5036050.986224480904639, 0.0 ], [ 518220.347945628862362, 5036050.994827103801072, 0.0 ], [ 518220.347954357566778, 5036050.994827187620103, 0.0 ] ], [ [ 518213.911241979629267, 5036059.41558772046119, 0.0 ], [ 518213.911250708333682, 5036059.415587804280221, 0.0 ], [ 518213.919835312350187, 5036059.415669828653336, 0.0 ], [ 518213.945671194640454, 5036059.407477119937539, 0.0 ], [ 518213.963022194395307, 5036059.390746586024761, 0.0 ], [ 518213.97169779118849, 5036059.382372725754976, 0.0 ], [ 518213.980468551104423, 5036059.365560208447278, 0.0 ], [ 518213.98065907129785, 5036059.348665707744658, 0.0 ], [ 518213.980754234420601, 5036059.340227050706744, 0.0 ], [ 518213.957966674992349, 5036059.078107756562531, 0.0 ], [ 518213.957957946404349, 5036059.078107672743499, 0.0 ], [ 518213.880731424491387, 5036059.077369784936309, 0.0 ], [ 518213.860713142261375, 5036059.330623323097825, 0.0 ], [ 518213.860617785190698, 5036059.339079165831208, 0.0 ], [ 518213.860236744803842, 5036059.372868166305125, 0.0 ], [ 518213.860141581681091, 5036059.381306823343039, 0.0 ], [ 518213.86862646433292, 5036059.389844649471343, 0.0 ], [ 518213.877111540932674, 5036059.398365288041532, 0.0 ], [ 518213.894176663307007, 5036059.406985097564757, 0.0 ], [ 518213.911241979629267, 5036059.41558772046119, 0.0 ] ], [ [ 518216.957358015992213, 5036059.444692889228463, 0.0 ], [ 518216.957366744696628, 5036059.444692973047495, 0.0 ], [ 518216.965951348713133, 5036059.444774997420609, 0.0 ], [ 518216.9917872310034, 5036059.436582288704813, 0.0 ], [ 518217.009138230758253, 5036059.419851754792035, 0.0 ], [ 518217.017813827551436, 5036059.41147789452225, 0.0 ], [ 518217.026584587467369, 5036059.394665377214551, 0.0 ], [ 518217.026775107660796, 5036059.377770876511931, 0.0 ], [ 518217.026870270783547, 5036059.369332219474018, 0.0 ], [ 518217.004082711355295, 5036059.107212925329804, 0.0 ], [ 518217.004073982767295, 5036059.107212841510773, 0.0 ], [ 518216.926847460854333, 5036059.106474953703582, 0.0 ], [ 518216.906829178624321, 5036059.359728491865098, 0.0 ], [ 518216.906733821553644, 5036059.368184334598482, 0.0 ], [ 518216.906352781166788, 5036059.401973335072398, 0.0 ], [ 518216.906257618044037, 5036059.410411992110312, 0.0 ], [ 518216.914742500695866, 5036059.418949818238616, 0.0 ], [ 518216.92322757729562, 5036059.427470456808805, 0.0 ], [ 518216.940292699669953, 5036059.43609026633203, 0.0 ], [ 518216.957358015992213, 5036059.444692889228463, 0.0 ] ], [ [ 518220.003469688061159, 5036059.473798017017543, 0.0 ], [ 518220.012054292077664, 5036059.473880041390657, 0.0 ], [ 518220.037890174367931, 5036059.465687332674861, 0.0 ], [ 518220.055241174122784, 5036059.448956798762083, 0.0 ], [ 518220.063916770915966, 5036059.440582938492298, 0.0 ], [ 518220.072687530831899, 5036059.423770421184599, 0.0 ], [ 518220.072878051025327, 5036059.40687592048198, 0.0 ], [ 518220.072973214148078, 5036059.398437263444066, 0.0 ], [ 518220.050185654719826, 5036059.136317969299853, 0.0 ], [ 518220.050176926131826, 5036059.136317885480821, 0.0 ], [ 518219.972950404218864, 5036059.135579997673631, 0.0 ], [ 518219.952932121988852, 5036059.388833535835147, 0.0 ], [ 518219.952836764918175, 5036059.39728937856853, 0.0 ], [ 518219.952455724531319, 5036059.431078379042447, 0.0 ], [ 518219.952360561408568, 5036059.43951703608036, 0.0 ], [ 518219.960845444060396, 5036059.448054862208664, 0.0 ], [ 518219.969330520660151, 5036059.456575500778854, 0.0 ], [ 518219.986395643034484, 5036059.465195310302079, 0.0 ], [ 518220.003460959356744, 5036059.473797933198512, 0.0 ], [ 518220.003469688061159, 5036059.473798017017543, 0.0 ] ], [ [ 518216.750174154934939, 5036067.925018577836454, 0.0 ], [ 518216.750182883639354, 5036067.925018661655486, 0.0 ], [ 518216.758767487655859, 5036067.9251006860286, 0.0 ], [ 518216.784603369946126, 5036067.916907977312803, 0.0 ], [ 518216.801954369700979, 5036067.900177443400025, 0.0 ], [ 518216.810629966494162, 5036067.89180358313024, 0.0 ], [ 518216.819400726410095, 5036067.874991065822542, 0.0 ], [ 518216.819591246603522, 5036067.858096565119922, 0.0 ], [ 518216.819686409726273, 5036067.849657908082008, 0.0 ], [ 518216.796898850298021, 5036067.587538613937795, 0.0 ], [ 518216.796890121710021, 5036067.587538530118763, 0.0 ], [ 518216.719663599797059, 5036067.586800642311573, 0.0 ], [ 518216.699645317567047, 5036067.840054180473089, 0.0 ], [ 518216.69954996049637, 5036067.848510023206472, 0.0 ], [ 518216.699168920109514, 5036067.882299023680389, 0.0 ], [ 518216.699073756986763, 5036067.890737680718303, 0.0 ], [ 518216.707558639638592, 5036067.899275506846607, 0.0 ], [ 518216.716043716238346, 5036067.907796145416796, 0.0 ], [ 518216.733108838612679, 5036067.916415954940021, 0.0 ], [ 518216.750174154934939, 5036067.925018577836454, 0.0 ] ], [ [ 518217.805574192956556, 5036067.935102761723101, 0.0 ], [ 518217.805582921660971, 5036067.935102845542133, 0.0 ], [ 518217.814167525677476, 5036067.935184869915247, 0.0 ], [ 518217.840003407967743, 5036067.92699216119945, 0.0 ], [ 518217.857354407722596, 5036067.910261627286673, 0.0 ], [ 518217.866030004515778, 5036067.901887767016888, 0.0 ], [ 518217.874800764431711, 5036067.885075249709189, 0.0 ], [ 518217.874991284625139, 5036067.868180749006569, 0.0 ], [ 518217.87508644774789, 5036067.859742091968656, 0.0 ], [ 518217.852298888319638, 5036067.597622797824442, 0.0 ], [ 518217.852290159731638, 5036067.597622714005411, 0.0 ], [ 518217.775063637818675, 5036067.59688482619822, 0.0 ], [ 518217.755045355588663, 5036067.850138364359736, 0.0 ], [ 518217.754949998517986, 5036067.85859420709312, 0.0 ], [ 518217.754568958131131, 5036067.892383207567036, 0.0 ], [ 518217.75447379500838, 5036067.90082186460495, 0.0 ], [ 518217.762958677660208, 5036067.909359690733254, 0.0 ], [ 518217.771443754259963, 5036067.917880329303443, 0.0 ], [ 518217.788508876634296, 5036067.926500138826668, 0.0 ], [ 518217.805574192956556, 5036067.935102761723101, 0.0 ] ], [ [ 518220.851698958023917, 5036067.964208014309406, 0.0 ], [ 518220.860283562040422, 5036067.96429003868252, 0.0 ], [ 518220.886119444330689, 5036067.956097329966724, 0.0 ], [ 518220.903470444085542, 5036067.939366796053946, 0.0 ], [ 518220.912146040878724, 5036067.930992935784161, 0.0 ], [ 518220.920916800794657, 5036067.914180418476462, 0.0 ], [ 518220.921107320988085, 5036067.897285917773843, 0.0 ], [ 518220.921202484110836, 5036067.888847260735929, 0.0 ], [ 518220.898414924682584, 5036067.626727966591716, 0.0 ], [ 518220.898406196094584, 5036067.626727882772684, 0.0 ], [ 518220.821179674181622, 5036067.625989994965494, 0.0 ], [ 518220.801161391951609, 5036067.87924353312701, 0.0 ], [ 518220.801066034880932, 5036067.887699375860393, 0.0 ], [ 518220.800684994494077, 5036067.92148837633431, 0.0 ], [ 518220.800589831371326, 5036067.929927033372223, 0.0 ], [ 518220.809074714023154, 5036067.938464859500527, 0.0 ], [ 518220.817559790622909, 5036067.946985498070717, 0.0 ], [ 518220.834624912997242, 5036067.955605307593942, 0.0 ], [ 518220.851690229319502, 5036067.964207930490375, 0.0 ], [ 518220.851698958023917, 5036067.964208014309406, 0.0 ] ], [ [ 518223.394061665225308, 5036051.023932272568345, 0.0 ], [ 518223.394070393929724, 5036051.023932356387377, 0.0 ], [ 518223.402654997946229, 5036051.024014380760491, 0.0 ], [ 518223.428490880236495, 5036051.015821672044694, 0.0 ], [ 518223.445841879991349, 5036050.999091138131917, 0.0 ], [ 518223.454517476784531, 5036050.990717277862132, 0.0 ], [ 518223.463288236700464, 5036050.973904760554433, 0.0 ], [ 518223.463478756893892, 5036050.957010259851813, 0.0 ], [ 518223.463573920016643, 5036050.9485716028139, 0.0 ], [ 518223.44078636058839, 5036050.686452308669686, 0.0 ], [ 518223.44077763200039, 5036050.686452224850655, 0.0 ], [ 518223.363551110087428, 5036050.685714337043464, 0.0 ], [ 518223.343532827857416, 5036050.93896787520498, 0.0 ], [ 518223.343437470786739, 5036050.947423717938364, 0.0 ], [ 518223.343056430399884, 5036050.98121271841228, 0.0 ], [ 518223.342961267277133, 5036050.989651375450194, 0.0 ], [ 518223.351446149928961, 5036050.998189201578498, 0.0 ], [ 518223.359931226528715, 5036051.006709840148687, 0.0 ], [ 518223.376996348903049, 5036051.015329649671912, 0.0 ], [ 518223.394061665225308, 5036051.023932272568345, 0.0 ] ], [ [ 518226.440173337294254, 5036051.053037400357425, 0.0 ], [ 518226.44875794131076, 5036051.053119424730539, 0.0 ], [ 518226.474593823601026, 5036051.044926716014743, 0.0 ], [ 518226.49194482335588, 5036051.028196182101965, 0.0 ], [ 518226.500620420149062, 5036051.01982232183218, 0.0 ], [ 518226.509391180064995, 5036051.003009804524481, 0.0 ], [ 518226.509581700258423, 5036050.986115303821862, 0.0 ], [ 518226.509676863381173, 5036050.977676646783948, 0.0 ], [ 518226.486889303952921, 5036050.715557352639735, 0.0 ], [ 518226.486880575364921, 5036050.715557268820703, 0.0 ], [ 518226.409654053451959, 5036050.714819381013513, 0.0 ], [ 518226.389635771221947, 5036050.968072919175029, 0.0 ], [ 518226.38954041415127, 5036050.976528761908412, 0.0 ], [ 518226.389159373764414, 5036051.010317762382329, 0.0 ], [ 518226.389064210641664, 5036051.018756419420242, 0.0 ], [ 518226.397549093293492, 5036051.027294245548546, 0.0 ], [ 518226.406034169893246, 5036051.035814884118736, 0.0 ], [ 518226.42309929226758, 5036051.044434693641961, 0.0 ], [ 518226.440164608589839, 5036051.053037316538393, 0.0 ], [ 518226.440173337294254, 5036051.053037400357425, 0.0 ] ], [ [ 518229.4862893736572, 5036051.082142569124699, 0.0 ], [ 518229.494873977673706, 5036051.082224593497813, 0.0 ], [ 518229.520709859963972, 5036051.074031884782016, 0.0 ], [ 518229.538060859718826, 5036051.057301350869238, 0.0 ], [ 518229.546736456512008, 5036051.048927490599453, 0.0 ], [ 518229.555507216427941, 5036051.032114973291755, 0.0 ], [ 518229.555697736621369, 5036051.015220472589135, 0.0 ], [ 518229.555792899744119, 5036051.006781815551221, 0.0 ], [ 518229.533005340315867, 5036050.744662521407008, 0.0 ], [ 518229.532996611727867, 5036050.744662437587976, 0.0 ], [ 518229.455770089814905, 5036050.743924549780786, 0.0 ], [ 518229.435751807584893, 5036050.997178087942302, 0.0 ], [ 518229.435656450514216, 5036051.005633930675685, 0.0 ], [ 518229.43527541012736, 5036051.039422931149602, 0.0 ], [ 518229.43518024700461, 5036051.047861588187516, 0.0 ], [ 518229.443665129656438, 5036051.05639941431582, 0.0 ], [ 518229.452150206256192, 5036051.064920052886009, 0.0 ], [ 518229.469215328630526, 5036051.073539862409234, 0.0 ], [ 518229.486280644952785, 5036051.082142485305667, 0.0 ], [ 518229.4862893736572, 5036051.082142569124699, 0.0 ] ], [ [ 518223.049585724424105, 5036059.502903185784817, 0.0 ], [ 518223.05817032844061, 5036059.502985210157931, 0.0 ], [ 518223.084006210730877, 5036059.494792501442134, 0.0 ], [ 518223.10135721048573, 5036059.478061967529356, 0.0 ], [ 518223.110032807278913, 5036059.469688107259572, 0.0 ], [ 518223.118803567194846, 5036059.452875589951873, 0.0 ], [ 518223.118994087388273, 5036059.435981089249253, 0.0 ], [ 518223.119089250511024, 5036059.427542432211339, 0.0 ], [ 518223.096301691082772, 5036059.165423138067126, 0.0 ], [ 518223.096292962494772, 5036059.165423054248095, 0.0 ], [ 518223.01906644058181, 5036059.164685166440904, 0.0 ], [ 518222.999048158351798, 5036059.41793870460242, 0.0 ], [ 518222.998952801281121, 5036059.426394547335804, 0.0 ], [ 518222.998571760894265, 5036059.46018354780972, 0.0 ], [ 518222.998476597771514, 5036059.468622204847634, 0.0 ], [ 518223.006961480423342, 5036059.477160030975938, 0.0 ], [ 518223.015446557023097, 5036059.485680669546127, 0.0 ], [ 518223.03251167939743, 5036059.494300479069352, 0.0 ], [ 518223.04957699571969, 5036059.502903101965785, 0.0 ], [ 518223.049585724424105, 5036059.502903185784817, 0.0 ] ], [ [ 518224.104985568614211, 5036059.513004555366933, 0.0 ], [ 518224.104994297318626, 5036059.513004639185965, 0.0 ], [ 518224.113578901335131, 5036059.513086663559079, 0.0 ], [ 518224.139414783625398, 5036059.504893954843283, 0.0 ], [ 518224.156765783380251, 5036059.488163420930505, 0.0 ], [ 518224.165441380173434, 5036059.47978956066072, 0.0 ], [ 518224.174212140089367, 5036059.462977043353021, 0.0 ], [ 518224.174402660282794, 5036059.446082542650402, 0.0 ], [ 518224.174497823405545, 5036059.437643885612488, 0.0 ], [ 518224.151710263977293, 5036059.175524591468275, 0.0 ], [ 518224.151701535389293, 5036059.175524507649243, 0.0 ], [ 518224.074475013476331, 5036059.174786619842052, 0.0 ], [ 518224.054456731246319, 5036059.428040158003569, 0.0 ], [ 518224.054361374175642, 5036059.436496000736952, 0.0 ], [ 518224.053980333788786, 5036059.470285001210868, 0.0 ], [ 518224.053885170666035, 5036059.478723658248782, 0.0 ], [ 518224.062370053317863, 5036059.487261484377086, 0.0 ], [ 518224.070855129917618, 5036059.495782122947276, 0.0 ], [ 518224.087920252291951, 5036059.5044019324705, 0.0 ], [ 518224.104985568614211, 5036059.513004555366933, 0.0 ] ], [ [ 518227.151110333681572, 5036059.542109807953238, 0.0 ], [ 518227.159694937698077, 5036059.542191832326353, 0.0 ], [ 518227.185530819988344, 5036059.533999123610556, 0.0 ], [ 518227.202881819743197, 5036059.517268589697778, 0.0 ], [ 518227.21155741653638, 5036059.508894729427993, 0.0 ], [ 518227.220328176452313, 5036059.492082212120295, 0.0 ], [ 518227.22051869664574, 5036059.475187711417675, 0.0 ], [ 518227.220613859768491, 5036059.466749054379761, 0.0 ], [ 518227.197826300340239, 5036059.204629760235548, 0.0 ], [ 518227.197817571752239, 5036059.204629676416516, 0.0 ], [ 518227.120591049839277, 5036059.203891788609326, 0.0 ], [ 518227.100572767609265, 5036059.457145326770842, 0.0 ], [ 518227.100477410538588, 5036059.465601169504225, 0.0 ], [ 518227.100096370151732, 5036059.499390169978142, 0.0 ], [ 518227.100001207028981, 5036059.507828827016056, 0.0 ], [ 518227.10848608968081, 5036059.51636665314436, 0.0 ], [ 518227.116971166280564, 5036059.524887291714549, 0.0 ], [ 518227.134036288654897, 5036059.533507101237774, 0.0 ], [ 518227.151101604977157, 5036059.542109724134207, 0.0 ], [ 518227.151110333681572, 5036059.542109807953238, 0.0 ] ], [ [ 518223.897793172684032, 5036067.993312974460423, 0.0 ], [ 518223.897801901388448, 5036067.993313058279455, 0.0 ], [ 518223.906386505404953, 5036067.993395082652569, 0.0 ], [ 518223.932222387695219, 5036067.985202373936772, 0.0 ], [ 518223.949573387450073, 5036067.968471840023994, 0.0 ], [ 518223.958248984243255, 5036067.96009797975421, 0.0 ], [ 518223.967019744159188, 5036067.943285462446511, 0.0 ], [ 518223.967210264352616, 5036067.926390961743891, 0.0 ], [ 518223.967305427475367, 5036067.917952304705977, 0.0 ], [ 518223.944517868047114, 5036067.655833010561764, 0.0 ], [ 518223.944509139459115, 5036067.655832926742733, 0.0 ], [ 518223.867282617546152, 5036067.655095038935542, 0.0 ], [ 518223.84726433531614, 5036067.908348577097058, 0.0 ], [ 518223.847168978245463, 5036067.916804419830441, 0.0 ], [ 518223.846787937858608, 5036067.950593420304358, 0.0 ], [ 518223.846692774735857, 5036067.959032077342272, 0.0 ], [ 518223.855177657387685, 5036067.967569903470576, 0.0 ], [ 518223.863662733987439, 5036067.976090542040765, 0.0 ], [ 518223.880727856361773, 5036067.98471035156399, 0.0 ], [ 518223.897793172684032, 5036067.993312974460423, 0.0 ] ], [ [ 518226.943909209046979, 5036068.022418143227696, 0.0 ], [ 518226.943917937751394, 5036068.022418227046728, 0.0 ], [ 518226.952502541767899, 5036068.022500251419842, 0.0 ], [ 518226.978338424058165, 5036068.014307542704046, 0.0 ], [ 518226.995689423813019, 5036067.997577008791268, 0.0 ], [ 518227.004365020606201, 5036067.989203148521483, 0.0 ], [ 518227.013135780522134, 5036067.972390631213784, 0.0 ], [ 518227.013326300715562, 5036067.955496130511165, 0.0 ], [ 518227.013421463838313, 5036067.947057473473251, 0.0 ], [ 518226.99063390441006, 5036067.684938179329038, 0.0 ], [ 518226.990625175822061, 5036067.684938095510006, 0.0 ], [ 518226.913398653909098, 5036067.684200207702816, 0.0 ], [ 518226.893380371679086, 5036067.937453745864332, 0.0 ], [ 518226.893285014608409, 5036067.945909588597715, 0.0 ], [ 518226.892903974221554, 5036067.979698589071631, 0.0 ], [ 518226.892808811098803, 5036067.988137246109545, 0.0 ], [ 518226.901293693750631, 5036067.996675072237849, 0.0 ], [ 518226.909778770350385, 5036068.005195710808039, 0.0 ], [ 518226.926843892724719, 5036068.013815520331264, 0.0 ], [ 518226.943909209046979, 5036068.022418143227696, 0.0 ] ], [ [ 518230.197213277046103, 5036059.571214851923287, 0.0 ], [ 518230.205797881062608, 5036059.571296876296401, 0.0 ], [ 518230.231633763352875, 5036059.563104167580605, 0.0 ], [ 518230.248984763107728, 5036059.546373633667827, 0.0 ], [ 518230.25766035990091, 5036059.537999773398042, 0.0 ], [ 518230.266431119816843, 5036059.521187256090343, 0.0 ], [ 518230.266621640010271, 5036059.504292755387723, 0.0 ], [ 518230.266716803133022, 5036059.49585409834981, 0.0 ], [ 518230.24392924370477, 5036059.233734804205596, 0.0 ], [ 518230.24392051511677, 5036059.233734720386565, 0.0 ], [ 518230.166693993203808, 5036059.232996832579374, 0.0 ], [ 518230.146675710973796, 5036059.486250370740891, 0.0 ], [ 518230.146580353903119, 5036059.494706213474274, 0.0 ], [ 518230.146199313516263, 5036059.52849521394819, 0.0 ], [ 518230.146104150393512, 5036059.536933870986104, 0.0 ], [ 518230.15458903304534, 5036059.545471697114408, 0.0 ], [ 518230.163074109645095, 5036059.553992335684597, 0.0 ], [ 518230.180139232019428, 5036059.562612145207822, 0.0 ], [ 518230.197204548341688, 5036059.571214768104255, 0.0 ], [ 518230.197213277046103, 5036059.571214851923287, 0.0 ] ], [ [ 518233.243329313409049, 5036059.60032002069056, 0.0 ], [ 518233.251913917425554, 5036059.600402045063674, 0.0 ], [ 518233.277749799715821, 5036059.592209336347878, 0.0 ], [ 518233.295100799470674, 5036059.5754788024351, 0.0 ], [ 518233.303776396263856, 5036059.567104942165315, 0.0 ], [ 518233.312547156179789, 5036059.550292424857616, 0.0 ], [ 518233.312737676373217, 5036059.533397924154997, 0.0 ], [ 518233.312832839495968, 5036059.524959267117083, 0.0 ], [ 518233.290045280067716, 5036059.26283997297287, 0.0 ], [ 518233.290036551479716, 5036059.262839889153838, 0.0 ], [ 518233.212810029566754, 5036059.262102001346648, 0.0 ], [ 518233.192791747336742, 5036059.515355539508164, 0.0 ], [ 518233.192696390266065, 5036059.523811382241547, 0.0 ], [ 518233.192315349879209, 5036059.557600382715464, 0.0 ], [ 518233.192220186756458, 5036059.566039039753377, 0.0 ], [ 518233.200705069408286, 5036059.574576865881681, 0.0 ], [ 518233.209190146008041, 5036059.583097504451871, 0.0 ], [ 518233.226255268382374, 5036059.591717313975096, 0.0 ], [ 518233.243320584704634, 5036059.600319936871529, 0.0 ], [ 518233.243329313409049, 5036059.60032002069056, 0.0 ] ] ] } }
]
}
