{
"type": "FeatureCollection",
"name": "giurati",
"crs": { "type": "name", "properties": { "name": "urn:ogc:def:crs:EPSG::6875" } },
"features": [
{ "type": "Feature", "properties": { "Name": "Field", "Description": "Giurati" }, "geometry": { "type": "Polygon", "coordinates": [ [ [ 6783911.578992834314704, 5034243.833061487413943, 0.0 ], [ 6783916.367755054496229, 5034247.271147183142602, 0.0 ], [ 6784027.491596310399473, 5034244.447005361318588, 0.0 ], [ 6784040.875572770833969, 5034230.940240126103163, 0.0 ], [ 6784040.875572770833969, 5034188.455324021168053, 0.0 ], [ 6784034.122190153226256, 5034180.228476104326546, 0.0 ], [ 6784023.807933064177632, 5034173.106727162376046, 0.0 ], [ 6784011.283478028140962, 5034169.545852690935135, 0.0 ], [ 6784001.583164812996984, 5034170.282585340552032, 0.0 ], [ 6783981.691383284516633, 5034170.405374115332961, 0.0 ], [ 6783979.972340436652303, 5034173.597882261499763, 0.0 ], [ 6783960.32613645773381, 5034174.33461491111666, 0.0 ], [ 6783958.361516058444977, 5034173.843459811992943, 0.0 ], [ 6783957.87036095932126, 5034170.896529214456677, 0.0 ], [ 6783928.646632540971041, 5034172.124416963197291, 0.0 ], [ 6783911.947359158657491, 5034179.000588356517255, 0.0 ], [ 6783911.026443347334862, 5034179.246165907010436, 0.0 ], [ 6783911.578992834314704, 5034243.833061487413943, 0.0 ] ], [ [ 6783928.094083052128553, 5034228.545859016478062, 0.0 ], [ 6783927.725716726854444, 5034190.604127582162619, 0.0 ], [ 6784018.957776454277337, 5034187.779985760338604, 0.0 ], [ 6784015.274113208055496, 5034230.142113089561462, 0.0 ], [ 6783928.094083052128553, 5034228.545859016478062, 0.0 ] ] ] } }
]
}
