{
  "type": "FeatureCollection",
  "features": [
    {
      "type": "Feature",
      "properties": {
        "Name": "test",
        "Description": "empty"
      },
      "geometry": {
        "type": "Polygon",
        "coordinates": [
          [
            [
              9.2321508,
              45.478092,
              0
            ],
            [
              9.2321597,
              45.4775188,
              0
            ],
            [
              9.2323975,
              45.47745,
              0
            ],
            [
              9.2327899,
              45.47745,
              0
            ],
            [
              9.2327929,
              45.4774792,
              0
            ],
            [
              9.2330694,
              45.4774855,
              0
            ],
            [
              9.2330813,
              45.4774542,
              0
            ],
            [
              9.2333547,
              45.4774584,
              0
            ],
            [
              9.2335361,
              45.4774792,
              0
            ],
            [
              9.2337115,
              45.4775376,
              0
            ],
            [
              9.2338185,
              45.4776293,
              0
            ],
            [
              9.2338185,
              45.4780128,
              0
            ],
            [
              9.2336966,
              45.47809,
              0
            ],
            [
              9.2336163,
              45.4781379,
              0
            ],
            [
              9.2322013,
              45.4781191,
              0
            ],
            [
              9.2321508,
              45.478092,
              0
            ]
          ],
          [
            [
              9.2336862,
              45.4780087,
              0
            ],
            [
              9.2337449,
              45.478004,
              0
            ],
            [
              9.2337434,
              45.4779638,
              0
            ],
            [
              9.2336847,
              45.477967,
              0
            ],
            [
              9.2336862,
              45.4780087,
              0
            ]
          ],
          [
            [
              9.2335004,
              45.4778502,
              0
            ],
            [
              9.2335614,
              45.4778523,
              0
            ],
            [
              9.2335628,
              45.4777815,
              0
            ],
            [
              9.2335049,
              45.4777815,
              0
            ],
            [
              9.2335004,
              45.4778502,
              0
            ]
          ],
          [
            [
              9.2336342,
              45.4777439,
              0
            ],
            [
              9.2337947,
              45.4777127,
              0
            ],
            [
              9.2338185,
              45.4776439,
              0
            ],
            [
              9.233658,
              45.4776335,
              0
            ],
            [
              9.2336342,
              45.4777439,
              0
            ]
          ],
          [
            [
              9.2322102,
              45.4778315,
              0
            ],
            [
              9.2322786,
              45.4778336,
              0
            ],
            [
              9.2322875,
              45.477771,
              0
            ],
            [
              9.2322102,
              45.4777669,
              0
            ],
            [
              9.2322102,
              45.4778315,
              0
            ]
          ]
        ]
      }
    }
  ]
}