{
"type": "FeatureCollection",
"name": "tutorial",
"crs": { "type": "name", "properties": { "name": "urn:ogc:def:crs:EPSG::6875" } },
"features": [
{ "type": "Feature", "properties": { "Name": "Field", "Description": "" }, "geometry": { "type": "Polygon", "coordinates": [ [ [ 6783913.833111201412976, 5034244.621331018395722, 0.0 ], [ 6783912.237408676184714, 5034178.931577080860734, 0.0 ], [ 6784028.058816935867071, 5034175.740172031335533, 0.0 ], [ 6784029.388569039292634, 5034242.759678073227406, 0.0 ], [ 6783913.833111201412976, 5034244.621331018395722, 0.0 ] ], [ [ 6783932.316665442660451, 5034230.658933928236365, 0.0 ], [ 6783930.720962917432189, 5034207.78719773888588, 0.0 ], [ 6783943.752533537335694, 5034208.718024211935699, 0.0 ], [ 6783946.013112113811076, 5034226.669677616097033, 0.0 ], [ 6783936.704847386106849, 5034236.376867975108325, 0.0 ], [ 6783932.316665442660451, 5034230.658933928236365, 0.0 ] ], [ [ 6784010.50608915835619, 5034234.515215029940009, 0.0 ], [ 6783996.809642487205565, 5034229.994057876057923, 0.0 ], [ 6783995.346915172412992, 5034214.302983048371971, 0.0 ], [ 6784005.984932004474103, 5034209.914801105856895, 0.0 ], [ 6784014.628320680931211, 5034212.973230944946408, 0.0 ], [ 6784017.553775309585035, 5034227.866454510018229, 0.0 ], [ 6784010.50608915835619, 5034234.515215029940009, 0.0 ] ], [ [ 6783959.975509205833077, 5034205.792569583281875, 0.0 ], [ 6783950.534269267693162, 5034201.271412429399788, 0.0 ], [ 6783957.448980208486319, 5034195.952404012903571, 0.0 ], [ 6783969.283773934468627, 5034185.447362391278148, 0.0 ], [ 6783987.501377758570015, 5034183.984635077416897, 0.0 ], [ 6783999.602121905423701, 5034185.048436760902405, 0.0 ], [ 6784002.527576534077525, 5034200.340585956349969, 0.0 ], [ 6783996.809642487205565, 5034195.686453592963517, 0.0 ], [ 6783989.363030704669654, 5034189.037693072110415, 0.0 ], [ 6783976.863360926508904, 5034189.569593913853168, 0.0 ], [ 6783969.68269956484437, 5034192.893974173814058, 0.0 ], [ 6783962.502038203179836, 5034198.877858642488718, 0.0 ], [ 6783959.975509205833077, 5034205.792569583281875, 0.0 ] ] ] } }
]
}
